{
"type": "FeatureCollection",
"name": "cebu_barangay_map",
"crs": { "type": "name", "properties": { "name": "urn:ogc:def:crs:OGC:1.3:CRS84" } },
"features": [
{ "type": "Feature", "properties": { "barangay": "Adlaon", "flood_risk": 0.3998, "risk_level": "LOW", "ndvi_2020": 0.3279, "ndvi_2010": 0.2345, "ndvi_change": -0.0934, "deforested": false, "elevation_m": 454.9 }, "geometry": { "type": "Polygon", "coordinates": [ [ [ 123.871688843000243, 10.455200196000078 ], [ 123.871986389000199, 10.454919815000039 ], [ 123.873649597000167, 10.454190254000025 ], [ 123.876510619000101, 10.453149795000172 ], [ 123.87879943900009, 10.452899933000083 ], [ 123.887741088000098, 10.452070236999987 ], [ 123.88715362500011, 10.451109887000143 ], [ 123.886466980000023, 10.450699807000149 ], [ 123.886627198000042, 10.449839592000103 ], [ 123.88649749700005, 10.449339866000116 ], [ 123.886772155000017, 10.448690416000034 ], [ 123.887657166000167, 10.448300362000111 ], [ 123.887947082000096, 10.447440147000066 ], [ 123.887382508000314, 10.447030068000174 ], [ 123.886749269000234, 10.446269990000133 ], [ 123.887123109000072, 10.445329665999964 ], [ 123.887680055000146, 10.444299698 ], [ 123.887176514000316, 10.44371032700019 ], [ 123.88616943400018, 10.443140031000098 ], [ 123.885841369000104, 10.442270280000173 ], [ 123.885246276000089, 10.441860199000075 ], [ 123.883956908000073, 10.441120148000039 ], [ 123.883033752000074, 10.440190315000109 ], [ 123.882400513000107, 10.439200401000051 ], [ 123.88192749000018, 10.438489915000105 ], [ 123.881607055000018, 10.437849998000161 ], [ 123.881301881000013, 10.437330246000158 ], [ 123.881233215000179, 10.436739921000083 ], [ 123.880439758000193, 10.436109544000033 ], [ 123.879463195000085, 10.436120034 ], [ 123.878753662000122, 10.436010362 ], [ 123.877708435000045, 10.434940339000036 ], [ 123.877082826000105, 10.433939935000012 ], [ 123.876808166000046, 10.432749749000152 ], [ 123.876838684000063, 10.431850434000069 ], [ 123.853347779000046, 10.433170319000112 ], [ 123.849418640000295, 10.437870026000041 ], [ 123.857048035000162, 10.449839592000103 ], [ 123.871688843000243, 10.455200196000078 ] ] ] } },
{ "type": "Feature", "properties": { "barangay": "Agsungot", "flood_risk": 0.4962, "risk_level": "LOW", "ndvi_2020": 0.3724, "ndvi_2010": 0.1908, "ndvi_change": -0.1816, "deforested": false, "elevation_m": 308.4 }, "geometry": { "type": "Polygon", "coordinates": [ [ [ 123.925399780000134, 10.434339523000062 ], [ 123.922126769000101, 10.433730125000068 ], [ 123.913810730000137, 10.435409546000017 ], [ 123.900337218000118, 10.422599793000188 ], [ 123.897972107000101, 10.444629670000154 ], [ 123.90154266400009, 10.447210312000152 ], [ 123.902359008000076, 10.447790146000159 ], [ 123.903297424000129, 10.449279786000147 ], [ 123.903488158000073, 10.452159881000114 ], [ 123.905540467000037, 10.45188999100003 ], [ 123.92569732600009, 10.451629639000146 ], [ 123.925399780000134, 10.434339523000062 ] ] ] } },
{ "type": "Feature", "properties": { "barangay": "Apas", "flood_risk": 0.8093, "risk_level": "HIGH", "ndvi_2020": 0.1873, "ndvi_2010": 0.1451, "ndvi_change": -0.0422, "deforested": false, "elevation_m": 31.5 }, "geometry": { "type": "Polygon", "coordinates": [ [ [ 123.909896851000212, 10.341250419000119 ], [ 123.914192200000116, 10.337679864000165 ], [ 123.913986205000015, 10.333709718000136 ], [ 123.912460326000087, 10.331159591000073 ], [ 123.911903382000219, 10.331170082000142 ], [ 123.911247254000159, 10.331529618000047 ], [ 123.91072845500014, 10.332030297000188 ], [ 123.910400390000063, 10.33273982999998 ], [ 123.910232544000223, 10.333860398000184 ], [ 123.909622193000018, 10.334230423000122 ], [ 123.90718078600014, 10.335490227000093 ], [ 123.907051087000127, 10.336409569000125 ], [ 123.907249452000087, 10.336950302000048 ], [ 123.909896851000212, 10.341250419000119 ] ] ] } },
{ "type": "Feature", "properties": { "barangay": "Babag", "flood_risk": 0.3635, "risk_level": "LOW", "ndvi_2020": 0.3617, "ndvi_2010": 0.1676, "ndvi_change": -0.1941, "deforested": false, "elevation_m": 485.5 }, "geometry": { "type": "Polygon", "coordinates": [ [ [ 123.853523254000152, 10.367360115000054 ], [ 123.847702027000082, 10.381690026000058 ], [ 123.860076904000039, 10.396809577000056 ], [ 123.868698120000317, 10.389140130000101 ], [ 123.874023437000119, 10.375249862000089 ], [ 123.871986389000199, 10.369779588000085 ], [ 123.853523254000152, 10.367360115000054 ] ] ] } },
{ "type": "Feature", "properties": { "barangay": "Bacayan", "flood_risk": 0.7751, "risk_level": "HIGH", "ndvi_2020": 0.2667, "ndvi_2010": 0.2169, "ndvi_change": -0.0498, "deforested": false, "elevation_m": 45.4 }, "geometry": { "type": "Polygon", "coordinates": [ [ [ 123.915328980000027, 10.388879776000067 ], [ 123.924453736000032, 10.384940148000055 ], [ 123.923362732000328, 10.37681961100003 ], [ 123.913017272000047, 10.376529694000112 ], [ 123.915328980000027, 10.388879776000067 ] ] ] } },
{ "type": "Feature", "properties": { "barangay": "Banilad", "flood_risk": 0.7731, "risk_level": "HIGH", "ndvi_2020": 0.2033, "ndvi_2010": 0.1176, "ndvi_change": -0.0857, "deforested": false, "elevation_m": 56.4 }, "geometry": { "type": "Polygon", "coordinates": [ [ [ 123.914192200000116, 10.337679864000165 ], [ 123.909896851000212, 10.341250419000119 ], [ 123.906982422000056, 10.344059945000026 ], [ 123.905006409000066, 10.348259927000072 ], [ 123.903816223000149, 10.349989891000064 ], [ 123.902763367000261, 10.351840020000111 ], [ 123.900222778000284, 10.355090142000108 ], [ 123.918510437, 10.346599579000042 ], [ 123.916206359000057, 10.335900308000021 ], [ 123.914192200000116, 10.337679864000165 ] ] ] } },
{ "type": "Feature", "properties": { "barangay": "Basak Pardo", "flood_risk": 0.8424, "risk_level": "HIGH", "ndvi_2020": 0.1999, "ndvi_2010": 0.0251, "ndvi_change": -0.1748, "deforested": false, "elevation_m": 4.7 }, "geometry": { "type": "Polygon", "coordinates": [ [ [ 123.881126403000053, 10.276720047000026 ], [ 123.881080628000063, 10.276619911000125 ], [ 123.880867003000048, 10.274820328000146 ], [ 123.880943299000023, 10.274060250000161 ], [ 123.881286620000083, 10.273440361000098 ], [ 123.881553650000114, 10.273329736000107 ], [ 123.881111145000204, 10.273320198000022 ], [ 123.880302429000039, 10.273900033000132 ], [ 123.866981507000105, 10.283809662000181 ], [ 123.868263245000094, 10.28470039400014 ], [ 123.87004852400014, 10.285570145000065 ], [ 123.880706788000225, 10.277059556000154 ], [ 123.881050109000171, 10.276780128000098 ], [ 123.881126403000053, 10.276720047000026 ] ] ] } },
{ "type": "Feature", "properties": { "barangay": "Basak San Nicolas", "flood_risk": 0.851, "risk_level": "HIGH", "ndvi_2020": 0.1485, "ndvi_2010": 0.0227, "ndvi_change": -0.1258, "deforested": false, "elevation_m": 6.3 }, "geometry": { "type": "Polygon", "coordinates": [ [ [ 123.881126403000053, 10.276720047000026 ], [ 123.881050109000171, 10.276780128000098 ], [ 123.880706788000225, 10.277059556000154 ], [ 123.87004852400014, 10.285570145000065 ], [ 123.869293213000105, 10.287280082000052 ], [ 123.878852844000107, 10.291110039000159 ], [ 123.882598877000191, 10.282819748000179 ], [ 123.883148193000011, 10.280920029000072 ], [ 123.883056641000053, 10.280830383000136 ], [ 123.882331849000138, 10.279379845 ], [ 123.88176727300015, 10.277999878000173 ], [ 123.881126403000053, 10.276720047000026 ] ] ] } },
{ "type": "Feature", "properties": { "barangay": "Binaliw", "flood_risk": 0.5775, "risk_level": "MODERATE", "ndvi_2020": 0.3851, "ndvi_2010": 0.0993, "ndvi_change": -0.2858, "deforested": false, "elevation_m": 205.4 }, "geometry": { "type": "Polygon", "coordinates": [ [ [ 123.900337218000118, 10.422599793000188 ], [ 123.913810730000137, 10.435409546000017 ], [ 123.922126769000101, 10.433730125000068 ], [ 123.925399780000134, 10.434339523000062 ], [ 123.925376892000031, 10.428239823000013 ], [ 123.925056457000096, 10.418820381000103 ], [ 123.924789429000157, 10.414340019000122 ], [ 123.916130066000051, 10.412289620000024 ], [ 123.899780274000136, 10.398719787 ], [ 123.901313781000226, 10.406370163000076 ], [ 123.901321412000016, 10.408550262000063 ], [ 123.900337218000118, 10.422599793000188 ] ] ] } },
{ "type": "Feature", "properties": { "barangay": "Bonbon", "flood_risk": 0.5115, "risk_level": "MODERATE", "ndvi_2020": 0.3729, "ndvi_2010": 0.2674, "ndvi_change": -0.1055, "deforested": false, "elevation_m": 293.4 }, "geometry": { "type": "Polygon", "coordinates": [ [ [ 123.847702027000082, 10.381690026000058 ], [ 123.853523254000152, 10.367360115000054 ], [ 123.839302063000218, 10.35968971300008 ], [ 123.816490174000023, 10.34941959400004 ], [ 123.808799744000339, 10.371120453000117 ], [ 123.808433532000095, 10.372300149000012 ], [ 123.808143615000176, 10.373530389000052 ], [ 123.807952881, 10.375120163000133 ], [ 123.808052063000218, 10.376930238000057 ], [ 123.808097838000208, 10.377440451999973 ], [ 123.809890747000281, 10.377670288 ], [ 123.847702027000082, 10.381690026000058 ] ] ] } },
{ "type": "Feature", "properties": { "barangay": "Budla-An", "flood_risk": 0.5802, "risk_level": "MODERATE", "ndvi_2020": 0.3682, "ndvi_2010": 0.1844, "ndvi_change": -0.1838, "deforested": false, "elevation_m": 194.1 }, "geometry": { "type": "Polygon", "coordinates": [ [ [ 123.900222778000284, 10.355090142000108 ], [ 123.89285278300008, 10.363719939000134 ], [ 123.880676269000105, 10.378800393000176 ], [ 123.889610290000064, 10.392430305000119 ], [ 123.898330689000318, 10.38047981200009 ], [ 123.903480530000024, 10.370249748000106 ], [ 123.904586792000032, 10.364660263000133 ], [ 123.901466369000104, 10.361109734000081 ], [ 123.900222778000284, 10.355090142000108 ] ] ] } },
{ "type": "Feature", "properties": { "barangay": "Buhisan", "flood_risk": 0.554, "risk_level": "MODERATE", "ndvi_2020": 0.3707, "ndvi_2010": 0.2815, "ndvi_change": -0.0892, "deforested": false, "elevation_m": 217.7 }, "geometry": { "type": "Polygon", "coordinates": [ [ [ 123.861923218000015, 10.329310417000045 ], [ 123.85984802300004, 10.325169563000088 ], [ 123.859596252000074, 10.324649811000029 ], [ 123.859573365000074, 10.323659897000027 ], [ 123.859901428000057, 10.322999954000068 ], [ 123.864181519000113, 10.318490030000135 ], [ 123.861129761000029, 10.313639640000076 ], [ 123.854370117000144, 10.307729721000044 ], [ 123.85015106100002, 10.30370044700004 ], [ 123.847923279000156, 10.304849625000088 ], [ 123.846168517000024, 10.305700303000151 ], [ 123.847602844000335, 10.320560455000077 ], [ 123.844497681, 10.323220254000148 ], [ 123.843269349000025, 10.327300072000014 ], [ 123.852020264000089, 10.338640214000065 ], [ 123.853828431000011, 10.337100029000055 ], [ 123.855072022000172, 10.335909844000071 ], [ 123.856369018, 10.334019660000024 ], [ 123.856788635000044, 10.333709718000136 ], [ 123.857421875000227, 10.333869935000166 ], [ 123.858360291000054, 10.334230423000122 ], [ 123.859466553000061, 10.33390045200008 ], [ 123.860496521000073, 10.333049775000177 ], [ 123.861297608000314, 10.33224010400005 ], [ 123.861816406000116, 10.33067989400007 ], [ 123.861923218000015, 10.329310417000045 ] ] ] } },
{ "type": "Feature", "properties": { "barangay": "Bulacao", "flood_risk": 0.6751, "risk_level": "MODERATE", "ndvi_2020": 0.2894, "ndvi_2010": 0.0077, "ndvi_change": -0.2817, "deforested": false, "elevation_m": 138.5 }, "geometry": { "type": "Polygon", "coordinates": [ [ [ 123.862197876000209, 10.272390365000092 ], [ 123.857391358000086, 10.266550064000114 ], [ 123.853393556000015, 10.269399642000167 ], [ 123.853088379000269, 10.269820214000163 ], [ 123.85282134900001, 10.270560264000096 ], [ 123.852546691000043, 10.27190017700002 ], [ 123.851806641000053, 10.273859978000075 ], [ 123.851196288000097, 10.274860382999975 ], [ 123.85057830900007, 10.27583026800005 ], [ 123.849662781, 10.276769638000133 ], [ 123.848129272000051, 10.278249741000138 ], [ 123.84641265900018, 10.279069900000025 ], [ 123.843948363000209, 10.279230118000157 ], [ 123.842979430000241, 10.279999734000057 ], [ 123.841308594000225, 10.280540467000151 ], [ 123.839668275000122, 10.283029556000088 ], [ 123.829673767000031, 10.294380188000105 ], [ 123.828041078000069, 10.296540261000018 ], [ 123.838562011000022, 10.299920081999971 ], [ 123.843063354000265, 10.292200088000186 ], [ 123.848167419000106, 10.287549973000125 ], [ 123.850616456000125, 10.286609651000106 ], [ 123.853401184000177, 10.28337955500001 ], [ 123.856117248000146, 10.279840469000135 ], [ 123.857856750000224, 10.277119636000123 ], [ 123.862197876000209, 10.272390365000092 ] ] ] } },
{ "type": "Feature", "properties": { "barangay": "Buot-Taup Pardo", "flood_risk": 0.4357, "risk_level": "LOW", "ndvi_2020": 0.3794, "ndvi_2010": 0.2408, "ndvi_change": -0.1386, "deforested": false, "elevation_m": 356.3 }, "geometry": { "type": "Polygon", "coordinates": [ [ [ 123.816490174000023, 10.34941959400004 ], [ 123.823600770000212, 10.336259842000118 ], [ 123.823448180000014, 10.335969926000075 ], [ 123.823539734000292, 10.335499764000076 ], [ 123.823860169000113, 10.335209846000112 ], [ 123.824226379000038, 10.334819795000044 ], [ 123.82411193900009, 10.334460258000036 ], [ 123.8238525390002, 10.333399773000167 ], [ 123.823997498000153, 10.332189559000028 ], [ 123.823898316000168, 10.330579759000045 ], [ 123.822769166000171, 10.328920364000169 ], [ 123.821807861000252, 10.328229904000068 ], [ 123.821090697000045, 10.327289582000049 ], [ 123.820671082000104, 10.327170372000126 ], [ 123.8195114130001, 10.328180314000065 ], [ 123.819023133000087, 10.328080177 ], [ 123.818809510000051, 10.327790261000189 ], [ 123.818496703000051, 10.327139855000041 ], [ 123.818023681000113, 10.326669693000042 ], [ 123.817207337000127, 10.326919555000075 ], [ 123.816558837000116, 10.327260018000118 ], [ 123.814949037000133, 10.328419685000028 ], [ 123.814468384000065, 10.328229904000068 ], [ 123.814117433000092, 10.327839851000022 ], [ 123.813179016000163, 10.326939583000126 ], [ 123.812446594000107, 10.326910019000024 ], [ 123.812049866000166, 10.327260018000118 ], [ 123.80346679600018, 10.326339722000171 ], [ 123.791259766000053, 10.328450203999978 ], [ 123.79057312000009, 10.328370095000025 ], [ 123.789787293000131, 10.328189849000012 ], [ 123.788970947000053, 10.327719690000094 ], [ 123.785278321000078, 10.326319694000119 ], [ 123.784637451000208, 10.326009750000026 ], [ 123.78267669700017, 10.325550080000028 ], [ 123.781211853000059, 10.325770378000129 ], [ 123.77056884700005, 10.326729776000093 ], [ 123.771423340000069, 10.333219528000086 ], [ 123.772262574000251, 10.340029717 ], [ 123.772926330000132, 10.349209787000177 ], [ 123.772407531000113, 10.35608005600011 ], [ 123.802368165000303, 10.348449706000054 ], [ 123.80319976900023, 10.348369598000033 ], [ 123.803977965000058, 10.348409652000157 ], [ 123.80518341100003, 10.347390174000168 ], [ 123.806159973000149, 10.346839906000127 ], [ 123.806846619000112, 10.346220017000064 ], [ 123.807090759000062, 10.345569611000087 ], [ 123.808326721000071, 10.346289635000119 ], [ 123.809547424000016, 10.346309661000021 ], [ 123.810913085000152, 10.346639634000041 ], [ 123.811752319000107, 10.346879960000024 ], [ 123.812606812000013, 10.347060204000059 ], [ 123.813453674000129, 10.347820282000043 ], [ 123.814277648000257, 10.348389626000085 ], [ 123.81536102300015, 10.348690032999968 ], [ 123.816238402000181, 10.348999977000062 ], [ 123.816490174000023, 10.34941959400004 ] ] ] } },
{ "type": "Feature", "properties": { "barangay": "Busay", "flood_risk": 0.5456, "risk_level": "MODERATE", "ndvi_2020": 0.3573, "ndvi_2010": 0.214, "ndvi_change": -0.1433, "deforested": false, "elevation_m": 230.2 }, "geometry": { "type": "Polygon", "coordinates": [ [ [ 123.871986389000199, 10.369779588000085 ], [ 123.874023437000119, 10.375249862000089 ], [ 123.880676269000105, 10.378800393000176 ], [ 123.89285278300008, 10.363719939000134 ], [ 123.900222778000284, 10.355090142000108 ], [ 123.902763367000261, 10.351840020000111 ], [ 123.903816223000149, 10.349989891000064 ], [ 123.905006409000066, 10.348259927000072 ], [ 123.889503478000165, 10.339639663000071 ], [ 123.889076233000083, 10.346699714000067 ], [ 123.883216858000083, 10.359629629999972 ], [ 123.871986389000199, 10.369779588000085 ] ] ] } },
{ "type": "Feature", "properties": { "barangay": "Calamba", "flood_risk": 0.8537, "risk_level": "HIGH", "ndvi_2020": 0.1121, "ndvi_2010": 0.0007, "ndvi_change": -0.1114, "deforested": false, "elevation_m": 13.0 }, "geometry": { "type": "Polygon", "coordinates": [ [ [ 123.887382508000314, 10.301980018999984 ], [ 123.892257690000065, 10.303910256000108 ], [ 123.891738892000035, 10.302920342000107 ], [ 123.89147186300022, 10.302020073000108 ], [ 123.891693115000066, 10.300979614000084 ], [ 123.891891480000027, 10.300379754 ], [ 123.891479493000134, 10.299610138000105 ], [ 123.890907288000108, 10.29885006000012 ], [ 123.890792846000068, 10.298379898000121 ], [ 123.890663147000055, 10.297089577000179 ], [ 123.890731811000023, 10.296030045000123 ], [ 123.890823365000188, 10.295269967000081 ], [ 123.891387939000197, 10.294750215000079 ], [ 123.890533446000063, 10.294480325000109 ], [ 123.889831543000014, 10.294300079000152 ], [ 123.887008666000156, 10.292949676000035 ], [ 123.887382508000314, 10.301980018999984 ] ] ] } },
{ "type": "Feature", "properties": { "barangay": "Cambinocot", "flood_risk": 0.5592, "risk_level": "MODERATE", "ndvi_2020": 0.3914, "ndvi_2010": 0.2702, "ndvi_change": -0.1212, "deforested": false, "elevation_m": 255.4 }, "geometry": { "type": "Polygon", "coordinates": [ [ [ 123.887741088000098, 10.452070236999987 ], [ 123.87879943900009, 10.452899933000083 ], [ 123.876510619000101, 10.453149795000172 ], [ 123.873649597000167, 10.454190254000025 ], [ 123.871986389000199, 10.454919815000039 ], [ 123.871688843000243, 10.455200196000078 ], [ 123.894523621000076, 10.472840309999981 ], [ 123.914573670000209, 10.485079766000183 ], [ 123.915931701000204, 10.48464965800008 ], [ 123.91694641100014, 10.484000206000189 ], [ 123.918167114000198, 10.481690407000144 ], [ 123.919403076000094, 10.478969575000065 ], [ 123.915786742000023, 10.476659773999984 ], [ 123.912361144000101, 10.474530219000087 ], [ 123.909950256000116, 10.471540452000113 ], [ 123.90888977100019, 10.46681022700011 ], [ 123.905540467000037, 10.45188999100003 ], [ 123.903488158000073, 10.452159881000114 ], [ 123.887741088000098, 10.452070236999987 ] ] ] } },
{ "type": "Feature", "properties": { "barangay": "Camputhaw", "flood_risk": 0.8316, "risk_level": "HIGH", "ndvi_2020": 0.1356, "ndvi_2010": 0.0672, "ndvi_change": -0.0684, "deforested": false, "elevation_m": 22.2 }, "geometry": { "type": "Polygon", "coordinates": [ [ [ 123.899902343, 10.306739806999985 ], [ 123.898872375000224, 10.30990982000003 ], [ 123.89821624800004, 10.311929703000089 ], [ 123.897872925000115, 10.313260079000031 ], [ 123.897377014000199, 10.314069748000122 ], [ 123.897613525000111, 10.314700127000151 ], [ 123.896957397000051, 10.316809654000167 ], [ 123.89662170400004, 10.318409921000125 ], [ 123.896751405000032, 10.319649697000045 ], [ 123.897720338000227, 10.319829940000147 ], [ 123.900520324000013, 10.319809914000075 ], [ 123.901710510000271, 10.319740296000191 ], [ 123.902427673000034, 10.318699837000167 ], [ 123.903007508000087, 10.317489625 ], [ 123.903678894000109, 10.316180229000054 ], [ 123.903717041000164, 10.315620423000098 ], [ 123.903900147000172, 10.313489913000012 ], [ 123.903938294000227, 10.312319756000079 ], [ 123.904113770000208, 10.311309816 ], [ 123.904197694000231, 10.310950279000053 ], [ 123.902908326000102, 10.308879852000075 ], [ 123.902656554000032, 10.30706977900013 ], [ 123.899902343, 10.306739806999985 ] ] ] } },
{ "type": "Feature", "properties": { "barangay": "Capitol Site", "flood_risk": 0.8342, "risk_level": "HIGH", "ndvi_2020": 0.1349, "ndvi_2010": 0.0578, "ndvi_change": -0.0771, "deforested": false, "elevation_m": 26.9 }, "geometry": { "type": "Polygon", "coordinates": [ [ [ 123.896751405000032, 10.319649697000045 ], [ 123.89662170400004, 10.318409921000125 ], [ 123.896957397000051, 10.316809654000167 ], [ 123.897613525000111, 10.314700127000151 ], [ 123.897377014000199, 10.314069748000122 ], [ 123.897872925000115, 10.313260079000031 ], [ 123.89821624800004, 10.311929703000089 ], [ 123.898872375000224, 10.30990982000003 ], [ 123.899902343, 10.306739806999985 ], [ 123.898971557000095, 10.306440353000085 ], [ 123.89813232500012, 10.306119920000128 ], [ 123.896392823000042, 10.305560112000023 ], [ 123.892257690000065, 10.303910256000108 ], [ 123.892860413000108, 10.305769921000035 ], [ 123.893463136000037, 10.307600022000031 ], [ 123.893577576000098, 10.309109688000092 ], [ 123.893562318000022, 10.310190201000012 ], [ 123.893417359000068, 10.311240197000018 ], [ 123.893241883000087, 10.312359810000032 ], [ 123.893577576000098, 10.31424045600005 ], [ 123.893882751000206, 10.315589904000149 ], [ 123.893997193000018, 10.317420007000123 ], [ 123.893920898000033, 10.318590164000057 ], [ 123.896057130000031, 10.319560051999986 ], [ 123.896751405000032, 10.319649697000045 ] ] ] } },
{ "type": "Feature", "properties": { "barangay": "Carreta", "flood_risk": 0.8515, "risk_level": "HIGH", "ndvi_2020": 0.0985, "ndvi_2010": 0.0523, "ndvi_change": -0.0462, "deforested": false, "elevation_m": 5.3 }, "geometry": { "type": "Polygon", "coordinates": [ [ [ 123.918502807000095, 10.303850174000104 ], [ 123.91840362500011, 10.30370044700004 ], [ 123.91815948500016, 10.303339958000151 ], [ 123.917747497000164, 10.30331039400005 ], [ 123.91741180300005, 10.303270339000164 ], [ 123.91700744700006, 10.303059579000148 ], [ 123.916709900000228, 10.302829743000132 ], [ 123.916580199, 10.302740097000026 ], [ 123.916442870000083, 10.302639962000171 ], [ 123.916267395000091, 10.302379608000081 ], [ 123.916076660000044, 10.302089691 ], [ 123.915863038000111, 10.301799775000177 ], [ 123.915519714000084, 10.3019104 ], [ 123.912429810000049, 10.303589821000116 ], [ 123.907783509000183, 10.304860115999986 ], [ 123.910369873000263, 10.309590340000057 ], [ 123.918167114000198, 10.304030419000185 ], [ 123.918327331000341, 10.303930283000057 ], [ 123.918502807000095, 10.303850174000104 ] ] ] } },
{ "type": "Feature", "properties": { "barangay": "Cogon Pardo", "flood_risk": 0.8478, "risk_level": "HIGH", "ndvi_2020": 0.1679, "ndvi_2010": 0.1026, "ndvi_change": -0.0653, "deforested": false, "elevation_m": 3.8 }, "geometry": { "type": "Polygon", "coordinates": [ [ [ 123.880462647000058, 10.268349647999969 ], [ 123.880027771000073, 10.267769813000029 ], [ 123.8796768200001, 10.267219544999989 ], [ 123.879402160000154, 10.266739845000075 ], [ 123.878852844000107, 10.26624965700006 ], [ 123.878486634000069, 10.265839577000065 ], [ 123.878288270000098, 10.265279769000074 ], [ 123.878082275000111, 10.264590264000162 ], [ 123.877799987000117, 10.264180185000043 ], [ 123.877723693000235, 10.264149666000094 ], [ 123.874450683000191, 10.266360282000051 ], [ 123.863632203000293, 10.274250032000054 ], [ 123.863449097000057, 10.275759697000183 ], [ 123.863456725000219, 10.277469635000045 ], [ 123.863403320000089, 10.278329850000091 ], [ 123.863319396000065, 10.279410363000068 ], [ 123.877502441000047, 10.270179749000135 ], [ 123.880462647000058, 10.268349647999969 ] ] ] } },
{ "type": "Feature", "properties": { "barangay": "Cogon Ramos", "flood_risk": 0.8393, "risk_level": "HIGH", "ndvi_2020": 0.1325, "ndvi_2010": 0.0361, "ndvi_change": -0.0964, "deforested": false, "elevation_m": 11.4 }, "geometry": { "type": "Polygon", "coordinates": [ [ [ 123.899902343, 10.306739806999985 ], [ 123.902656554000032, 10.30706977900013 ], [ 123.902450562000013, 10.305029869000123 ], [ 123.902542114000198, 10.301699638000173 ], [ 123.903121948000035, 10.300499917000081 ], [ 123.902702331000228, 10.300319671000125 ], [ 123.898971557000095, 10.306440353000085 ], [ 123.899902343, 10.306739806999985 ] ] ] } },
{ "type": "Feature", "properties": { "barangay": "Day-As", "flood_risk": 0.8432, "risk_level": "HIGH", "ndvi_2020": 0.0654, "ndvi_2010": 0.0485, "ndvi_change": -0.0169, "deforested": false, "elevation_m": 6.1 }, "geometry": { "type": "Polygon", "coordinates": [ [ [ 123.9054489130001, 10.296660424000095 ], [ 123.904197694000231, 10.29714965800008 ], [ 123.903121948000035, 10.300499917000081 ], [ 123.907470702000069, 10.300749779000171 ], [ 123.90750884900001, 10.29920005800011 ], [ 123.907051087000127, 10.297929764000173 ], [ 123.906982422000056, 10.29714012200003 ], [ 123.907966613000212, 10.296730042000036 ], [ 123.9054489130001, 10.296660424000095 ] ] ] } },
{ "type": "Feature", "properties": { "barangay": "Duljo", "flood_risk": 0.8712, "risk_level": "HIGH", "ndvi_2020": 0.0756, "ndvi_2010": 0.0142, "ndvi_change": -0.0614, "deforested": false, "elevation_m": 5.0 }, "geometry": { "type": "Polygon", "coordinates": [ [ [ 123.885887146000073, 10.289449692000176 ], [ 123.885429382000211, 10.289580345000047 ], [ 123.884666444000118, 10.289170266000156 ], [ 123.884246826000208, 10.288960456000041 ], [ 123.883956908000073, 10.288689613000088 ], [ 123.883689880000134, 10.28826999600011 ], [ 123.88371276900034, 10.288109779000081 ], [ 123.883430481000119, 10.288200378 ], [ 123.883049011000139, 10.288499832000127 ], [ 123.882919312000013, 10.288949966000018 ], [ 123.882606507000105, 10.289340019000065 ], [ 123.887008666000156, 10.292949676000035 ], [ 123.88699340800008, 10.292519569999968 ], [ 123.887207030000013, 10.292090415000075 ], [ 123.887290954000036, 10.291629791000162 ], [ 123.887062073000038, 10.290929794000078 ], [ 123.886917114000198, 10.290630342000156 ], [ 123.886672973000145, 10.289609909000035 ], [ 123.885887146000073, 10.289449692000176 ] ] ] } },
{ "type": "Feature", "properties": { "barangay": "Ermita", "flood_risk": 0.8582, "risk_level": "HIGH", "ndvi_2020": 0.0545, "ndvi_2010": 0.0376, "ndvi_change": -0.0169, "deforested": false, "elevation_m": 6.8 }, "geometry": { "type": "Polygon", "coordinates": [ [ [ 123.902198791000046, 10.29069996000004 ], [ 123.901802064000208, 10.290809632000105 ], [ 123.90138244700006, 10.290849687000104 ], [ 123.901008607000222, 10.29090976700013 ], [ 123.900650025000232, 10.29090976700013 ], [ 123.900268555000252, 10.290829659000053 ], [ 123.899871826000208, 10.290710450000063 ], [ 123.899520875, 10.290499688000182 ], [ 123.899192810000159, 10.29020977 ], [ 123.898902893000013, 10.28981971900015 ], [ 123.898612977000084, 10.289319993 ], [ 123.898567200000116, 10.289259910000112 ], [ 123.898277282000095, 10.288789750000092 ], [ 123.897811890000071, 10.288419723000118 ], [ 123.897293090000176, 10.288330079 ], [ 123.896827698000038, 10.288330079 ], [ 123.896446228000059, 10.288379669 ], [ 123.89615631200013, 10.288570404999973 ], [ 123.895896912000126, 10.28876972200004 ], [ 123.895606994000104, 10.288869857000066 ], [ 123.895317078000062, 10.288889885000117 ], [ 123.895652771000073, 10.28950977400018 ], [ 123.896057130000031, 10.29020023400011 ], [ 123.896003723000035, 10.290900230000091 ], [ 123.89540863000002, 10.291810037000175 ], [ 123.895668029000149, 10.292329789000178 ], [ 123.895370483000193, 10.292460442000049 ], [ 123.897270202000072, 10.292750358999967 ], [ 123.897796631, 10.29284954100001 ], [ 123.898941040000068, 10.293069839000111 ], [ 123.902511597000057, 10.293740273000026 ], [ 123.903617859000065, 10.293709756000055 ], [ 123.903022766000163, 10.292429924000032 ], [ 123.902198791000046, 10.29069996000004 ] ] ] } },
{ "type": "Feature", "properties": { "barangay": "Guadalupe", "flood_risk": 0.7559, "risk_level": "HIGH", "ndvi_2020": 0.194, "ndvi_2010": 0.0762, "ndvi_change": -0.1178, "deforested": false, "elevation_m": 76.8 }, "geometry": { "type": "Polygon", "coordinates": [ [ [ 123.861129761000029, 10.313639640000076 ], [ 123.864181519000113, 10.318490030000135 ], [ 123.859901428000057, 10.322999954000068 ], [ 123.859573365000074, 10.323659897000027 ], [ 123.859596252000074, 10.324649811000029 ], [ 123.85984802300004, 10.325169563000088 ], [ 123.861923218000015, 10.329310417000045 ], [ 123.8644332880001, 10.329509736000091 ], [ 123.889717103000294, 10.334320069000114 ], [ 123.889526367000144, 10.33281993900016 ], [ 123.889686584000174, 10.331100463000155 ], [ 123.89040374800004, 10.329939842000158 ], [ 123.890586854000048, 10.32870960300005 ], [ 123.891983032000098, 10.327119827000161 ], [ 123.892440796000187, 10.325519562000181 ], [ 123.893096924000133, 10.32536029900001 ], [ 123.893348693, 10.324799538000093 ], [ 123.893516541000054, 10.324790000000178 ], [ 123.893516541000054, 10.324469567000051 ], [ 123.893661500000121, 10.323419571000045 ], [ 123.893356323000148, 10.322070122000014 ], [ 123.893547058000195, 10.320469857000035 ], [ 123.893920898000033, 10.318590164000057 ], [ 123.893997193000018, 10.317420007000123 ], [ 123.893882751000206, 10.315589904000149 ], [ 123.893577576000098, 10.31424045600005 ], [ 123.893241883000087, 10.312359810000032 ], [ 123.893417359000068, 10.311240197000018 ], [ 123.893562318000022, 10.310190201000012 ], [ 123.893577576000098, 10.309109688000092 ], [ 123.893463136000037, 10.307600022000031 ], [ 123.892860413000108, 10.305769921000035 ], [ 123.892257690000065, 10.303910256000108 ], [ 123.887382508000314, 10.301980018999984 ], [ 123.882492065000065, 10.300029755000082 ], [ 123.877777099000014, 10.306960107000123 ], [ 123.865936279000152, 10.306260109000107 ], [ 123.861129761000029, 10.313639640000076 ] ] ] } },
{ "type": "Feature", "properties": { "barangay": "Guba", "flood_risk": 0.4468, "risk_level": "LOW", "ndvi_2020": 0.3522, "ndvi_2010": 0.2114, "ndvi_change": -0.1408, "deforested": false, "elevation_m": 383.7 }, "geometry": { "type": "Polygon", "coordinates": [ [ [ 123.876838684000063, 10.431850434000069 ], [ 123.876808166000046, 10.432749749000152 ], [ 123.877082826000105, 10.433939935000012 ], [ 123.877708435000045, 10.434940339000036 ], [ 123.878753662000122, 10.436010362 ], [ 123.879463195000085, 10.436120034 ], [ 123.880439758000193, 10.436109544000033 ], [ 123.881233215000179, 10.436739921000083 ], [ 123.881301881000013, 10.437330246000158 ], [ 123.881607055000018, 10.437849998000161 ], [ 123.88192749000018, 10.438489915000105 ], [ 123.882400513000107, 10.439200401000051 ], [ 123.883033752000074, 10.440190315000109 ], [ 123.883956908000073, 10.441120148000039 ], [ 123.885246276000089, 10.441860199000075 ], [ 123.885841369000104, 10.442270280000173 ], [ 123.88616943400018, 10.443140031000098 ], [ 123.887176514000316, 10.44371032700019 ], [ 123.887680055000146, 10.444299698 ], [ 123.887123109000072, 10.445329665999964 ], [ 123.886749269000234, 10.446269990000133 ], [ 123.887382508000314, 10.447030068000174 ], [ 123.887947082000096, 10.447440147000066 ], [ 123.887657166000167, 10.448300362000111 ], [ 123.886772155000017, 10.448690416000034 ], [ 123.88649749700005, 10.449339866000116 ], [ 123.886627198000042, 10.449839592000103 ], [ 123.886466980000023, 10.450699807000149 ], [ 123.88715362500011, 10.451109887000143 ], [ 123.887741088000098, 10.452070236999987 ], [ 123.903488158000073, 10.452159881000114 ], [ 123.903297424000129, 10.449279786000147 ], [ 123.902359008000076, 10.447790146000159 ], [ 123.90154266400009, 10.447210312000152 ], [ 123.897972107000101, 10.444629670000154 ], [ 123.900337218000118, 10.422599793000188 ], [ 123.884666444000118, 10.42218971200009 ], [ 123.865791322000177, 10.419329642999969 ], [ 123.865951539000207, 10.420240403000037 ], [ 123.86614227300015, 10.420689584000172 ], [ 123.865982056000121, 10.421790123000164 ], [ 123.86657714900025, 10.422229766000044 ], [ 123.867248535000044, 10.422209739999971 ], [ 123.86801147600022, 10.422920228000123 ], [ 123.867927552000197, 10.424099923000142 ], [ 123.868347169000117, 10.425350190000131 ], [ 123.868698120000317, 10.425200463000067 ], [ 123.869438172000059, 10.425080300000161 ], [ 123.870216369000104, 10.425419808000186 ], [ 123.870773315000179, 10.426509857000042 ], [ 123.871238709000295, 10.427530289000117 ], [ 123.8718872070001, 10.42858028400002 ], [ 123.872276306000117, 10.429690361000155 ], [ 123.873168945000316, 10.43035984 ], [ 123.873573304000161, 10.430589675000135 ], [ 123.874290467000037, 10.430680275000157 ], [ 123.875152588000219, 10.430439948000071 ], [ 123.876083374000132, 10.430600166000033 ], [ 123.876876831000118, 10.431090356000084 ], [ 123.876838684000063, 10.431850434000069 ] ] ] } },
{ "type": "Feature", "properties": { "barangay": "Hippodromo", "flood_risk": 0.8356, "risk_level": "HIGH", "ndvi_2020": 0.136, "ndvi_2010": 0.0852, "ndvi_change": -0.0508, "deforested": false, "elevation_m": 12.4 }, "geometry": { "type": "Polygon", "coordinates": [ [ [ 123.904197694000231, 10.310950279000053 ], [ 123.904113770000208, 10.311309816 ], [ 123.903938294000227, 10.312319756000079 ], [ 123.903900147000172, 10.313489913000012 ], [ 123.903717041000164, 10.315620423000098 ], [ 123.90470886300011, 10.315859794000062 ], [ 123.906219483000086, 10.317500116000076 ], [ 123.908561706000114, 10.313710213000149 ], [ 123.910369873000263, 10.309590340000057 ], [ 123.907783509000183, 10.304860115999986 ], [ 123.907440186000031, 10.305789947000108 ], [ 123.905853271000296, 10.307680130999984 ], [ 123.904602050000108, 10.309379578 ], [ 123.904197694000231, 10.310950279000053 ] ] ] } },
{ "type": "Feature", "properties": { "barangay": "Inayawan", "flood_risk": 0.8433, "risk_level": "HIGH", "ndvi_2020": 0.2058, "ndvi_2010": 0.1309, "ndvi_change": -0.0749, "deforested": false, "elevation_m": 4.4 }, "geometry": { "type": "Polygon", "coordinates": [ [ [ 123.857391358000086, 10.266550064000114 ], [ 123.862197876000209, 10.272390365000092 ], [ 123.863632203000293, 10.274250032000054 ], [ 123.874450683000191, 10.266360282000051 ], [ 123.877723693000235, 10.264149666000094 ], [ 123.87744903600003, 10.264039992999983 ], [ 123.876892089000194, 10.263759613000047 ], [ 123.876197814000193, 10.263070108000136 ], [ 123.875617982000222, 10.262129784000138 ], [ 123.872962953000183, 10.262060166000083 ], [ 123.867668152000192, 10.261859894 ], [ 123.865707398000154, 10.26194954000016 ], [ 123.864288331000012, 10.26255989100008 ], [ 123.863197327000194, 10.26303005300008 ], [ 123.861862183000085, 10.263930320999975 ], [ 123.857391358000086, 10.266550064000114 ] ] ] } },
{ "type": "Feature", "properties": { "barangay": "Kalubihan", "flood_risk": 0.8513, "risk_level": "HIGH", "ndvi_2020": 0.0488, "ndvi_2010": 0.0285, "ndvi_change": -0.0203, "deforested": false, "elevation_m": 10.3 }, "geometry": { "type": "Polygon", "coordinates": [ [ [ 123.903617859000065, 10.293709756000055 ], [ 123.902511597000057, 10.293740273000026 ], [ 123.898941040000068, 10.293069839000111 ], [ 123.899078369000222, 10.294090271000186 ], [ 123.904228210000042, 10.294659615000057 ], [ 123.903617859000065, 10.293709756000055 ] ] ] } },
{ "type": "Feature", "properties": { "barangay": "Kalunasan", "flood_risk": 0.526, "risk_level": "MODERATE", "ndvi_2020": 0.391, "ndvi_2010": 0.2422, "ndvi_change": -0.1488, "deforested": false, "elevation_m": 243.6 }, "geometry": { "type": "Polygon", "coordinates": [ [ [ 123.853523254000152, 10.367360115000054 ], [ 123.871986389000199, 10.369779588000085 ], [ 123.883216858000083, 10.359629629999972 ], [ 123.889076233000083, 10.346699714000067 ], [ 123.889503478000165, 10.339639663000071 ], [ 123.889717103000294, 10.334320069000114 ], [ 123.8644332880001, 10.329509736000091 ], [ 123.867233277000196, 10.334919930000069 ], [ 123.8663635260001, 10.352370262000079 ], [ 123.853523254000152, 10.367360115000054 ] ] ] } },
{ "type": "Feature", "properties": { "barangay": "Kamagayan", "flood_risk": 0.8338, "risk_level": "HIGH", "ndvi_2020": 0.0785, "ndvi_2010": 0.0433, "ndvi_change": -0.0352, "deforested": false, "elevation_m": 10.2 }, "geometry": { "type": "Polygon", "coordinates": [ [ [ 123.904197694000231, 10.29714965800008 ], [ 123.9054489130001, 10.296660424000095 ], [ 123.904228210000042, 10.294659615000057 ], [ 123.899078369000222, 10.294090271000186 ], [ 123.899200440000072, 10.29543972 ], [ 123.904197694000231, 10.29714965800008 ] ] ] } },
{ "type": "Feature", "properties": { "barangay": "Kasambagan", "flood_risk": 0.8125, "risk_level": "HIGH", "ndvi_2020": 0.2126, "ndvi_2010": 0.1696, "ndvi_change": -0.043, "deforested": false, "elevation_m": 19.9 }, "geometry": { "type": "Polygon", "coordinates": [ [ [ 123.912460326000087, 10.331159591000073 ], [ 123.913986205000015, 10.333709718000136 ], [ 123.914192200000116, 10.337679864000165 ], [ 123.916206359000057, 10.335900308000021 ], [ 123.917427064000208, 10.335760117000063 ], [ 123.918693543000131, 10.334620476000168 ], [ 123.919342041000277, 10.332830429000126 ], [ 123.920379639000203, 10.331430436 ], [ 123.92134857200017, 10.330459595999969 ], [ 123.922653199000024, 10.328599931000042 ], [ 123.922996520000083, 10.327770232000034 ], [ 123.911407472000064, 10.319569588000093 ], [ 123.910079957000107, 10.322150231000023 ], [ 123.908538818000011, 10.323309898000105 ], [ 123.912460326000087, 10.331159591000073 ] ] ] } },
{ "type": "Feature", "properties": { "barangay": "Kinasang-An Pardo", "flood_risk": 0.6963, "risk_level": "MODERATE", "ndvi_2020": 0.2503, "ndvi_2010": 0.0039, "ndvi_change": -0.2464, "deforested": false, "elevation_m": 109.8 }, "geometry": { "type": "Polygon", "coordinates": [ [ [ 123.866981507000105, 10.283809662000181 ], [ 123.880302429000039, 10.273900033000132 ], [ 123.881111145000204, 10.273320198000022 ], [ 123.881553650000114, 10.273329736000107 ], [ 123.881980895000083, 10.273159981000163 ], [ 123.882400513000107, 10.273159981000163 ], [ 123.882606507000105, 10.273099900000091 ], [ 123.882888793, 10.272890091000022 ], [ 123.882820130000141, 10.271920205000072 ], [ 123.882606507000105, 10.271439553000107 ], [ 123.882469178000065, 10.271089554000184 ], [ 123.882049561000031, 10.270540238000024 ], [ 123.881980895000083, 10.270469665000178 ], [ 123.880462647000058, 10.268349647999969 ], [ 123.877502441000047, 10.270179749000135 ], [ 123.863319396000065, 10.279410363000068 ], [ 123.854499817000033, 10.289030075000028 ], [ 123.849449158000198, 10.296239852000156 ], [ 123.8445129400003, 10.303290368000148 ], [ 123.845703125000114, 10.303839683000035 ], [ 123.847923279000156, 10.304849625000088 ], [ 123.85015106100002, 10.30370044700004 ], [ 123.858718873000043, 10.291569711000022 ], [ 123.866981507000105, 10.283809662000181 ] ] ] } },
{ "type": "Feature", "properties": { "barangay": "Labangon", "flood_risk": 0.8565, "risk_level": "HIGH", "ndvi_2020": 0.119, "ndvi_2010": -0.0279, "ndvi_change": -0.1469, "deforested": false, "elevation_m": 9.6 }, "geometry": { "type": "Polygon", "coordinates": [ [ [ 123.887382508000314, 10.301980018999984 ], [ 123.887008666000156, 10.292949676000035 ], [ 123.882606507000105, 10.289340019000065 ], [ 123.882362366000052, 10.290109634999965 ], [ 123.882278442000029, 10.29036998700002 ], [ 123.882316589000084, 10.291540147000035 ], [ 123.882377624000128, 10.29207992500011 ], [ 123.882446290000075, 10.29292965000019 ], [ 123.882560730000023, 10.293600083000115 ], [ 123.882797241000048, 10.29502964 ], [ 123.882652282000095, 10.296600342000147 ], [ 123.88250732500012, 10.297590256000149 ], [ 123.882713317000253, 10.299539567000068 ], [ 123.882492065000065, 10.300029755000082 ], [ 123.887382508000314, 10.301980018999984 ] ] ] } },
{ "type": "Feature", "properties": { "barangay": "Lahug", "flood_risk": 0.7644, "risk_level": "HIGH", "ndvi_2020": 0.2147, "ndvi_2010": 0.1296, "ndvi_change": -0.0851, "deforested": false, "elevation_m": 63.2 }, "geometry": { "type": "Polygon", "coordinates": [ [ [ 123.909896851000212, 10.341250419000119 ], [ 123.907249452000087, 10.336950302000048 ], [ 123.907051087000127, 10.336409569000125 ], [ 123.90718078600014, 10.335490227000093 ], [ 123.909622193000018, 10.334230423000122 ], [ 123.910232544000223, 10.333860398000184 ], [ 123.910400390000063, 10.33273982999998 ], [ 123.91072845500014, 10.332030297000188 ], [ 123.911247254000159, 10.331529618000047 ], [ 123.911903382000219, 10.331170082000142 ], [ 123.912460326000087, 10.331159591000073 ], [ 123.908538818000011, 10.323309898000105 ], [ 123.906219483000086, 10.317500116000076 ], [ 123.90470886300011, 10.315859794000062 ], [ 123.903717041000164, 10.315620423000098 ], [ 123.903678894000109, 10.316180229000054 ], [ 123.903007508000087, 10.317489625 ], [ 123.902427673000034, 10.318699837000167 ], [ 123.901710510000271, 10.319740296000191 ], [ 123.900520324000013, 10.319809914000075 ], [ 123.897720338000227, 10.319829940000147 ], [ 123.896751405000032, 10.319649697000045 ], [ 123.896057130000031, 10.319560051999986 ], [ 123.893920898000033, 10.318590164000057 ], [ 123.893547058000195, 10.320469857000035 ], [ 123.893356323000148, 10.322070122000014 ], [ 123.893661500000121, 10.323419571000045 ], [ 123.893516541000054, 10.324469567000051 ], [ 123.893516541000054, 10.324790000000178 ], [ 123.893348693, 10.324799538000093 ], [ 123.893096924000133, 10.32536029900001 ], [ 123.892440796000187, 10.325519562000181 ], [ 123.891983032000098, 10.327119827000161 ], [ 123.890586854000048, 10.32870960300005 ], [ 123.89040374800004, 10.329939842000158 ], [ 123.889686584000174, 10.331100463000155 ], [ 123.889526367000144, 10.33281993900016 ], [ 123.889717103000294, 10.334320069000114 ], [ 123.889503478000165, 10.339639663000071 ], [ 123.905006409000066, 10.348259927000072 ], [ 123.906982422000056, 10.344059945000026 ], [ 123.909896851000212, 10.341250419000119 ] ] ] } },
{ "type": "Feature", "properties": { "barangay": "Lorega", "flood_risk": 0.8648, "risk_level": "HIGH", "ndvi_2020": 0.0521, "ndvi_2010": 0.054, "ndvi_change": 0.0019, "deforested": false, "elevation_m": 4.8 }, "geometry": { "type": "Polygon", "coordinates": [ [ [ 123.907783509000183, 10.304860115999986 ], [ 123.912429810000049, 10.303589821000116 ], [ 123.911102295000092, 10.301899910000031 ], [ 123.911003113000106, 10.299599647000036 ], [ 123.907470702000069, 10.300749779000171 ], [ 123.907348632000094, 10.302330016999974 ], [ 123.907417297000052, 10.30331039400005 ], [ 123.907592773000033, 10.304550171000187 ], [ 123.907783509000183, 10.304860115999986 ] ] ] } },
{ "type": "Feature", "properties": { "barangay": "Lusaran", "flood_risk": 0.5012, "risk_level": "MODERATE", "ndvi_2020": 0.369, "ndvi_2010": 0.2207, "ndvi_change": -0.1483, "deforested": false, "elevation_m": 314.8 }, "geometry": { "type": "Polygon", "coordinates": [ [ [ 123.862747192000029, 10.473600388000023 ], [ 123.888816833000078, 10.493430137000189 ], [ 123.889572144000113, 10.492259980000085 ], [ 123.890571595000097, 10.491000176000114 ], [ 123.891830444000107, 10.489839554000184 ], [ 123.892692565000289, 10.4894104010001 ], [ 123.893249511000022, 10.489480020000087 ], [ 123.894470215000069, 10.490209579000123 ], [ 123.895469665000064, 10.490770340000097 ], [ 123.896171570000092, 10.490790366000169 ], [ 123.897583009000073, 10.490099906000069 ], [ 123.898872375000224, 10.489049912000041 ], [ 123.900123596000071, 10.487890243000095 ], [ 123.90174102900005, 10.486989975000029 ], [ 123.904182433000074, 10.486089706000087 ], [ 123.906486511000139, 10.485679627000138 ], [ 123.909362793000241, 10.48565960000019 ], [ 123.910942077000186, 10.485529900000131 ], [ 123.912513733000196, 10.485610008000151 ], [ 123.914573670000209, 10.485079766000183 ], [ 123.894523621000076, 10.472840309999981 ], [ 123.871688843000243, 10.455200196000078 ], [ 123.870956421000074, 10.467120172000079 ], [ 123.862747192000029, 10.473600388000023 ] ] ] } },
{ "type": "Feature", "properties": { "barangay": "Luz", "flood_risk": 0.8298, "risk_level": "HIGH", "ndvi_2020": 0.1275, "ndvi_2010": 0.1182, "ndvi_change": -0.0093, "deforested": false, "elevation_m": 17.5 }, "geometry": { "type": "Polygon", "coordinates": [ [ [ 123.908561706000114, 10.313710213000149 ], [ 123.906219483000086, 10.317500116000076 ], [ 123.908538818000011, 10.323309898000105 ], [ 123.910079957000107, 10.322150231000023 ], [ 123.911407472000064, 10.319569588000093 ], [ 123.913291930000014, 10.31634044700013 ], [ 123.908561706000114, 10.313710213000149 ] ] ] } },
{ "type": "Feature", "properties": { "barangay": "Mabini", "flood_risk": 0.4933, "risk_level": "LOW", "ndvi_2020": 0.3904, "ndvi_2010": 0.3323, "ndvi_change": -0.0581, "deforested": false, "elevation_m": 310.3 }, "geometry": { "type": "Polygon", "coordinates": [ [ [ 123.92569732600009, 10.451629639000146 ], [ 123.905540467000037, 10.45188999100003 ], [ 123.90888977100019, 10.46681022700011 ], [ 123.910079957000107, 10.466369629000098 ], [ 123.911750793000124, 10.465000153000119 ], [ 123.914031982000097, 10.463629723000054 ], [ 123.91694641100014, 10.462949754000022 ], [ 123.925666810000052, 10.461870194000028 ], [ 123.925689696000177, 10.453869821000069 ], [ 123.92569732600009, 10.451629639000146 ] ] ] } },
{ "type": "Feature", "properties": { "barangay": "Mabolo", "flood_risk": 0.845, "risk_level": "HIGH", "ndvi_2020": 0.1082, "ndvi_2010": 0.0735, "ndvi_change": -0.0347, "deforested": false, "elevation_m": 7.0 }, "geometry": { "type": "Polygon", "coordinates": [ [ [ 123.918502807000095, 10.303850174000104 ], [ 123.918327331000341, 10.303930283000057 ], [ 123.918167114000198, 10.304030419000185 ], [ 123.910369873000263, 10.309590340000057 ], [ 123.908561706000114, 10.313710213000149 ], [ 123.913291930000014, 10.31634044700013 ], [ 123.911407472000064, 10.319569588000093 ], [ 123.922996520000083, 10.327770232000034 ], [ 123.923233033000201, 10.326620102999982 ], [ 123.923149109000178, 10.325519562000181 ], [ 123.922973634000073, 10.324830055000064 ], [ 123.922691345000089, 10.323949813000013 ], [ 123.923072816000172, 10.322629929000072 ], [ 123.923728942000253, 10.321720124000024 ], [ 123.924217224000017, 10.31987953200013 ], [ 123.924171447000049, 10.31921958900017 ], [ 123.924079895000091, 10.31803989399998 ], [ 123.923957825000116, 10.317139626000085 ], [ 123.924133301000097, 10.315759659000037 ], [ 123.923851013000103, 10.314069748000122 ], [ 123.92344665600001, 10.313170433000039 ], [ 123.923286438000105, 10.312629700000173 ], [ 123.923149109000178, 10.31210994800017 ], [ 123.923530580000033, 10.311160089000168 ], [ 123.924041749000139, 10.310359954000148 ], [ 123.924209594000104, 10.310139656000047 ], [ 123.924423217000026, 10.309869766000077 ], [ 123.924713135000047, 10.310159684000098 ], [ 123.925178527000071, 10.310660363000011 ], [ 123.925422668000238, 10.310919762000083 ], [ 123.925567628000181, 10.310770035000019 ], [ 123.925827027000082, 10.310390473000098 ], [ 123.926002503000177, 10.309960365 ], [ 123.925849914000082, 10.309499741000081 ], [ 123.925430299000254, 10.309080124000104 ], [ 123.924880981000115, 10.308790208000119 ], [ 123.924362184000074, 10.308589936000033 ], [ 123.92392730600011, 10.308369636000123 ], [ 123.923553466000158, 10.308090210000103 ], [ 123.923156738000216, 10.307760239000061 ], [ 123.922782897000047, 10.30731010400001 ], [ 123.922447204000036, 10.306650162000153 ], [ 123.922142030000032, 10.306070328000146 ], [ 123.921867370000086, 10.305999757000052 ], [ 123.921607972000061, 10.305830002000107 ], [ 123.921318054000267, 10.305649758000129 ], [ 123.921089173000041, 10.305600166000147 ], [ 123.920753480000144, 10.305620194000028 ], [ 123.920532227000194, 10.305580140000075 ], [ 123.920158387000015, 10.305459977000169 ], [ 123.919662476000099, 10.305159570000058 ], [ 123.919166565000182, 10.304650306000042 ], [ 123.918632508000087, 10.304059983000116 ], [ 123.918502807000095, 10.303850174000104 ] ] ] } },
{ "type": "Feature", "properties": { "barangay": "Malubog", "flood_risk": 0.398, "risk_level": "LOW", "ndvi_2020": 0.3605, "ndvi_2010": 0.1626, "ndvi_change": -0.1979, "deforested": false, "elevation_m": 409.9 }, "geometry": { "type": "Polygon", "coordinates": [ [ [ 123.874023437000119, 10.375249862000089 ], [ 123.868698120000317, 10.389140130000101 ], [ 123.860076904000039, 10.396809577000056 ], [ 123.866592407000098, 10.404080390999979 ], [ 123.889610290000064, 10.392430305000119 ], [ 123.880676269000105, 10.378800393000176 ], [ 123.874023437000119, 10.375249862000089 ] ] ] } },
{ "type": "Feature", "properties": { "barangay": "Mambaling", "flood_risk": 0.8597, "risk_level": "HIGH", "ndvi_2020": 0.1171, "ndvi_2010": -0.0328, "ndvi_change": -0.1499, "deforested": false, "elevation_m": 5.4 }, "geometry": { "type": "Polygon", "coordinates": [ [ [ 123.883148193000011, 10.280920029000072 ], [ 123.882598877000191, 10.282819748000179 ], [ 123.878852844000107, 10.291110039000159 ], [ 123.882446290000075, 10.29292965000019 ], [ 123.882377624000128, 10.29207992500011 ], [ 123.882316589000084, 10.291540147000035 ], [ 123.882278442000029, 10.29036998700002 ], [ 123.882362366000052, 10.290109634999965 ], [ 123.882606507000105, 10.289340019000065 ], [ 123.882919312000013, 10.288949966000018 ], [ 123.883049011000139, 10.288499832000127 ], [ 123.883430481000119, 10.288200378 ], [ 123.88371276900034, 10.288109779000081 ], [ 123.883758546000308, 10.28757953600018 ], [ 123.884033204000161, 10.287500382000189 ], [ 123.884246826000208, 10.287919998000064 ], [ 123.884468079000158, 10.28800010600014 ], [ 123.884666444000118, 10.288060189000078 ], [ 123.884666444000118, 10.288200378 ], [ 123.884872436000137, 10.288339615000098 ], [ 123.885147094000104, 10.288689613000088 ], [ 123.88578033400006, 10.288689613000088 ], [ 123.88688659800016, 10.288479806000055 ], [ 123.887306213000102, 10.288129807000132 ], [ 123.887451172000169, 10.287919998000064 ], [ 123.887733460000049, 10.287369729000147 ], [ 123.887733460000049, 10.28695964800005 ], [ 123.88787078900009, 10.286540032000119 ], [ 123.887939452000069, 10.286199569000132 ], [ 123.887939452000069, 10.285779952000098 ], [ 123.887222291000285, 10.285280227999976 ], [ 123.886947631000112, 10.284999848000041 ], [ 123.885002137000129, 10.283060074000161 ], [ 123.885002137000129, 10.282779694000055 ], [ 123.883148193000011, 10.280920029000072 ] ] ] } },
{ "type": "Feature", "properties": { "barangay": "Pahina Central", "flood_risk": 0.8663, "risk_level": "HIGH", "ndvi_2020": 0.0717, "ndvi_2010": -0.0045, "ndvi_change": -0.0762, "deforested": false, "elevation_m": 8.6 }, "geometry": { "type": "Polygon", "coordinates": [ [ [ 123.898941040000068, 10.293069839000111 ], [ 123.897796631, 10.29284954100001 ], [ 123.897270202000072, 10.292750358999967 ], [ 123.895370483000193, 10.292460442000049 ], [ 123.894371033000084, 10.293250084000022 ], [ 123.892227173000151, 10.29446983400004 ], [ 123.891387939000197, 10.294750215000079 ], [ 123.894309998000267, 10.295249938000097 ], [ 123.896377563000215, 10.295339584999965 ], [ 123.899200440000072, 10.29543972 ], [ 123.899078369000222, 10.294090271000186 ], [ 123.898941040000068, 10.293069839000111 ] ] ] } },
{ "type": "Feature", "properties": { "barangay": "Pahina San Nicolas", "flood_risk": 0.8712, "risk_level": "HIGH", "ndvi_2020": 0.0676, "ndvi_2010": 0.0342, "ndvi_change": -0.0334, "deforested": false, "elevation_m": 5.8 }, "geometry": { "type": "Polygon", "coordinates": [ [ [ 123.892227173000151, 10.29446983400004 ], [ 123.894371033000084, 10.293250084000022 ], [ 123.895370483000193, 10.292460442000049 ], [ 123.894027710000046, 10.292220116000067 ], [ 123.892433167000149, 10.291930198000045 ], [ 123.892227173000151, 10.29446983400004 ] ] ] } },
{ "type": "Feature", "properties": { "barangay": "Pamutan", "flood_risk": 0.329, "risk_level": "LOW", "ndvi_2020": 0.3859, "ndvi_2010": 0.1168, "ndvi_change": -0.2691, "deforested": false, "elevation_m": 468.8 }, "geometry": { "type": "Polygon", "coordinates": [ [ [ 123.816490174000023, 10.34941959400004 ], [ 123.839302063000218, 10.35968971300008 ], [ 123.852020264000089, 10.338640214000065 ], [ 123.843269349000025, 10.327300072000014 ], [ 123.823898316000168, 10.330579759000045 ], [ 123.823997498000153, 10.332189559000028 ], [ 123.8238525390002, 10.333399773000167 ], [ 123.82411193900009, 10.334460258000036 ], [ 123.824226379000038, 10.334819795000044 ], [ 123.823860169000113, 10.335209846000112 ], [ 123.823539734000292, 10.335499764000076 ], [ 123.823448180000014, 10.335969926000075 ], [ 123.823600770000212, 10.336259842000118 ], [ 123.816490174000023, 10.34941959400004 ] ] ] } },
{ "type": "Feature", "properties": { "barangay": "Pardo", "flood_risk": 0.6699, "risk_level": "MODERATE", "ndvi_2020": 0.2773, "ndvi_2010": -0.0019, "ndvi_change": -0.2792, "deforested": false, "elevation_m": 130.7 }, "geometry": { "type": "Polygon", "coordinates": [ [ [ 123.862197876000209, 10.272390365000092 ], [ 123.857856750000224, 10.277119636000123 ], [ 123.856117248000146, 10.279840469000135 ], [ 123.853401184000177, 10.28337955500001 ], [ 123.850616456000125, 10.286609651000106 ], [ 123.848167419000106, 10.287549973000125 ], [ 123.843063354000265, 10.292200088000186 ], [ 123.838562011000022, 10.299920081999971 ], [ 123.8445129400003, 10.303290368000148 ], [ 123.849449158000198, 10.296239852000156 ], [ 123.854499817000033, 10.289030075000028 ], [ 123.863319396000065, 10.279410363000068 ], [ 123.863403320000089, 10.278329850000091 ], [ 123.863456725000219, 10.277469635000045 ], [ 123.863449097000057, 10.275759697000183 ], [ 123.863632203000293, 10.274250032000054 ], [ 123.862197876000209, 10.272390365000092 ] ] ] } },
{ "type": "Feature", "properties": { "barangay": "Pari-An", "flood_risk": 0.8417, "risk_level": "HIGH", "ndvi_2020": 0.0473, "ndvi_2010": 0.0512, "ndvi_change": 0.0039, "deforested": false, "elevation_m": 5.7 }, "geometry": { "type": "Polygon", "coordinates": [ [ [ 123.9054489130001, 10.296660424000095 ], [ 123.907966613000212, 10.296730042000036 ], [ 123.908233643000131, 10.294810295000048 ], [ 123.905899048000265, 10.294690131999971 ], [ 123.904228210000042, 10.294659615000057 ], [ 123.9054489130001, 10.296660424000095 ] ] ] } },
{ "type": "Feature", "properties": { "barangay": "Paril", "flood_risk": 0.6037, "risk_level": "MODERATE", "ndvi_2020": 0.3698, "ndvi_2010": 0.3259, "ndvi_change": -0.0439, "deforested": false, "elevation_m": 205.1 }, "geometry": { "type": "Polygon", "coordinates": [ [ [ 123.90888977100019, 10.46681022700011 ], [ 123.909950256000116, 10.471540452000113 ], [ 123.912361144000101, 10.474530219000087 ], [ 123.915786742000023, 10.476659773999984 ], [ 123.919403076000094, 10.478969575000065 ], [ 123.920516968000243, 10.476200105000089 ], [ 123.920532227000194, 10.474849701999972 ], [ 123.920570374000022, 10.474049569000101 ], [ 123.920837401000199, 10.473190309000074 ], [ 123.922332764000203, 10.47255992900017 ], [ 123.923576355000023, 10.472610473999964 ], [ 123.924369812, 10.473270417000151 ], [ 123.92491912800017, 10.47371959600008 ], [ 123.925430299000254, 10.473449706000167 ], [ 123.926033020000091, 10.472920419000161 ], [ 123.926223756000127, 10.471730233000073 ], [ 123.925827027000082, 10.469730377000133 ], [ 123.925338745000317, 10.465419770000096 ], [ 123.925666810000052, 10.461870194000028 ], [ 123.91694641100014, 10.462949754000022 ], [ 123.914031982000097, 10.463629723000054 ], [ 123.911750793000124, 10.465000153000119 ], [ 123.910079957000107, 10.466369629000098 ], [ 123.90888977100019, 10.46681022700011 ] ] ] } },
{ "type": "Feature", "properties": { "barangay": "Pasil", "flood_risk": 0.8701, "risk_level": "HIGH", "ndvi_2020": 0.07, "ndvi_2010": 0.0421, "ndvi_change": -0.0279, "deforested": false, "elevation_m": 5.0 }, "geometry": { "type": "Polygon", "coordinates": [ [ [ 123.895370483000193, 10.292460442000049 ], [ 123.895668029000149, 10.292329789000178 ], [ 123.89540863000002, 10.291810037000175 ], [ 123.896003723000035, 10.290900230000091 ], [ 123.896057130000031, 10.29020023400011 ], [ 123.895652771000073, 10.28950977400018 ], [ 123.895317078000062, 10.288889885000117 ], [ 123.895057678000171, 10.288889885000117 ], [ 123.894767762000129, 10.288889885000117 ], [ 123.894447327000194, 10.288889885000117 ], [ 123.894088745000204, 10.288889885000117 ], [ 123.893928528000174, 10.288889885000117 ], [ 123.893959046000191, 10.289830207000136 ], [ 123.894027710000046, 10.292220116000067 ], [ 123.895370483000193, 10.292460442000049 ] ] ] } },
{ "type": "Feature", "properties": { "barangay": "Pit-Os", "flood_risk": 0.7363, "risk_level": "HIGH", "ndvi_2020": 0.2901, "ndvi_2010": 0.2526, "ndvi_change": -0.0375, "deforested": false, "elevation_m": 73.4 }, "geometry": { "type": "Polygon", "coordinates": [ [ [ 123.924453736000032, 10.384940148000055 ], [ 123.915328980000027, 10.388879776000067 ], [ 123.917602539000086, 10.397999763000144 ], [ 123.924453736000032, 10.402990342000123 ], [ 123.92489624100017, 10.401000024000098 ], [ 123.925483704000158, 10.399180413000124 ], [ 123.925857544000337, 10.397060394000107 ], [ 123.924453736000032, 10.384940148000055 ] ] ] } },
{ "type": "Feature", "properties": { "barangay": "Pulangbato", "flood_risk": 0.6604, "risk_level": "MODERATE", "ndvi_2020": 0.3689, "ndvi_2010": 0.1826, "ndvi_change": -0.1863, "deforested": false, "elevation_m": 122.2 }, "geometry": { "type": "Polygon", "coordinates": [ [ [ 123.899780274000136, 10.398719787 ], [ 123.916130066000051, 10.412289620000024 ], [ 123.924789429000157, 10.414340019000122 ], [ 123.924491882000325, 10.40575027400007 ], [ 123.924453736000032, 10.402990342000123 ], [ 123.917602539000086, 10.397999763000144 ], [ 123.915328980000027, 10.388879776000067 ], [ 123.898330689000318, 10.38047981200009 ], [ 123.889610290000064, 10.392430305000119 ], [ 123.890457153000057, 10.392709733000117 ], [ 123.89161682200006, 10.392709733000117 ], [ 123.893127440000171, 10.392689704000134 ], [ 123.894279479000147, 10.392580032000126 ], [ 123.89536285500003, 10.393549919000179 ], [ 123.895866394000109, 10.395400048000056 ], [ 123.895812988000102, 10.39682960600004 ], [ 123.895988464000084, 10.398139954000101 ], [ 123.896636962000116, 10.398699761000159 ], [ 123.897613525000111, 10.398790360000078 ], [ 123.89837646400008, 10.398699761000159 ], [ 123.899780274000136, 10.398719787 ] ] ] } },
{ "type": "Feature", "properties": { "barangay": "Pung-Ol-Sibugay", "flood_risk": 0.3572, "risk_level": "LOW", "ndvi_2020": 0.4007, "ndvi_2010": 0.217, "ndvi_change": -0.1837, "deforested": false, "elevation_m": 474.8 }, "geometry": { "type": "Polygon", "coordinates": [ [ [ 123.860076904000039, 10.396809577000056 ], [ 123.847702027000082, 10.381690026000058 ], [ 123.809890747000281, 10.377670288 ], [ 123.813331604000155, 10.391730309000081 ], [ 123.825103760000047, 10.400179863 ], [ 123.831260681000117, 10.410639763000063 ], [ 123.834663391000049, 10.416959764000069 ], [ 123.838943481000229, 10.41384029500017 ], [ 123.839447022000058, 10.413009644000113 ], [ 123.840103150000118, 10.412560463000148 ], [ 123.841049195000323, 10.412059784 ], [ 123.841789245000086, 10.41147995 ], [ 123.842010498000036, 10.41051006400005 ], [ 123.843223572000056, 10.40958023100012 ], [ 123.843971252000074, 10.408590317000119 ], [ 123.843986512000129, 10.407859803000065 ], [ 123.844879150000224, 10.407199859000173 ], [ 123.846069335000038, 10.406800270000076 ], [ 123.846168517000024, 10.406270028000051 ], [ 123.846717835000049, 10.405830383000023 ], [ 123.847930907000091, 10.405540466000105 ], [ 123.848297119000108, 10.405340195000122 ], [ 123.86061096200001, 10.409110069000121 ], [ 123.866592407000098, 10.404080390999979 ], [ 123.860076904000039, 10.396809577000056 ] ] ] } },
{ "type": "Feature", "properties": { "barangay": "Punta Princesa", "flood_risk": 0.7961, "risk_level": "HIGH", "ndvi_2020": 0.1975, "ndvi_2010": 0.0602, "ndvi_change": -0.1373, "deforested": false, "elevation_m": 38.9 }, "geometry": { "type": "Polygon", "coordinates": [ [ [ 123.878852844000107, 10.291110039000159 ], [ 123.869293213000105, 10.287280082000052 ], [ 123.861358642000027, 10.295169830000077 ], [ 123.853500366000162, 10.304699898000081 ], [ 123.854370117000144, 10.307729721000044 ], [ 123.855278014000191, 10.306650162000153 ], [ 123.856117248000146, 10.30613994600003 ], [ 123.857627869000339, 10.305480003000014 ], [ 123.859207153000057, 10.304840088000105 ], [ 123.86148071200023, 10.30280971500008 ], [ 123.862716675000229, 10.300930024000081 ], [ 123.864273071000071, 10.298950196000021 ], [ 123.865898132000098, 10.29730987500011 ], [ 123.868217468000012, 10.295669556 ], [ 123.870613098000149, 10.294850350000104 ], [ 123.873367309000059, 10.294650078000075 ], [ 123.875747681, 10.294810295000048 ], [ 123.877372742000034, 10.294969560000027 ], [ 123.880332946000067, 10.295080185000188 ], [ 123.882469178000065, 10.294980048000184 ], [ 123.882797241000048, 10.29502964 ], [ 123.882560730000023, 10.293600083000115 ], [ 123.882446290000075, 10.29292965000019 ], [ 123.878852844000107, 10.291110039000159 ] ] ] } },
{ "type": "Feature", "properties": { "barangay": "Quiot Pardo", "flood_risk": 0.7356, "risk_level": "HIGH", "ndvi_2020": 0.2481, "ndvi_2010": 0.0165, "ndvi_change": -0.2316, "deforested": false, "elevation_m": 78.3 }, "geometry": { "type": "Polygon", "coordinates": [ [ [ 123.87004852400014, 10.285570145000065 ], [ 123.868263245000094, 10.28470039400014 ], [ 123.866981507000105, 10.283809662000181 ], [ 123.858718873000043, 10.291569711000022 ], [ 123.85015106100002, 10.30370044700004 ], [ 123.854370117000144, 10.307729721000044 ], [ 123.853500366000162, 10.304699898000081 ], [ 123.861358642000027, 10.295169830000077 ], [ 123.869293213000105, 10.287280082000052 ], [ 123.87004852400014, 10.285570145000065 ] ] ] } },
{ "type": "Feature", "properties": { "barangay": "Sambag I", "flood_risk": 0.854, "risk_level": "HIGH", "ndvi_2020": 0.0959, "ndvi_2010": 0.0404, "ndvi_change": -0.0555, "deforested": false, "elevation_m": 15.0 }, "geometry": { "type": "Polygon", "coordinates": [ [ [ 123.890792846000068, 10.298379898000121 ], [ 123.890907288000108, 10.29885006000012 ], [ 123.891479493000134, 10.299610138000105 ], [ 123.891891480000027, 10.300379754 ], [ 123.891693115000066, 10.300979614000084 ], [ 123.89147186300022, 10.302020073000108 ], [ 123.891738892000035, 10.302920342000107 ], [ 123.892257690000065, 10.303910256000108 ], [ 123.896392823000042, 10.305560112000023 ], [ 123.897613525000111, 10.301030159000106 ], [ 123.895637513000111, 10.300379754 ], [ 123.894248963000109, 10.299730301000181 ], [ 123.890792846000068, 10.298379898000121 ] ] ] } },
{ "type": "Feature", "properties": { "barangay": "Sambag II", "flood_risk": 0.8597, "risk_level": "HIGH", "ndvi_2020": 0.0922, "ndvi_2010": -0.0115, "ndvi_change": -0.1037, "deforested": false, "elevation_m": 9.5 }, "geometry": { "type": "Polygon", "coordinates": [ [ [ 123.891387939000197, 10.294750215000079 ], [ 123.890823365000188, 10.295269967000081 ], [ 123.890731811000023, 10.296030045000123 ], [ 123.890663147000055, 10.297089577000179 ], [ 123.890792846000068, 10.298379898000121 ], [ 123.894248963000109, 10.299730301000181 ], [ 123.895637513000111, 10.300379754 ], [ 123.897613525000111, 10.301030159000106 ], [ 123.898078919000113, 10.299220085000059 ], [ 123.899200440000072, 10.29543972 ], [ 123.896377563000215, 10.295339584999965 ], [ 123.894309998000267, 10.295249938000097 ], [ 123.891387939000197, 10.294750215000079 ] ] ] } },
{ "type": "Feature", "properties": { "barangay": "San Antonio", "flood_risk": 0.8419, "risk_level": "HIGH", "ndvi_2020": 0.0734, "ndvi_2010": 0.0133, "ndvi_change": -0.0601, "deforested": false, "elevation_m": 8.4 }, "geometry": { "type": "Polygon", "coordinates": [ [ [ 123.902702331000228, 10.300319671000125 ], [ 123.903121948000035, 10.300499917000081 ], [ 123.904197694000231, 10.29714965800008 ], [ 123.899200440000072, 10.29543972 ], [ 123.898078919000113, 10.299220085000059 ], [ 123.902702331000228, 10.300319671000125 ] ] ] } },
{ "type": "Feature", "properties": { "barangay": "San Jose", "flood_risk": 0.6109, "risk_level": "MODERATE", "ndvi_2020": 0.3864, "ndvi_2010": 0.0974, "ndvi_change": -0.289, "deforested": false, "elevation_m": 143.8 }, "geometry": { "type": "Polygon", "coordinates": [ [ [ 123.915328980000027, 10.388879776000067 ], [ 123.913017272000047, 10.376529694000112 ], [ 123.909301758000083, 10.370340347000081 ], [ 123.903480530000024, 10.370249748000106 ], [ 123.898330689000318, 10.38047981200009 ], [ 123.915328980000027, 10.388879776000067 ] ] ] } },
{ "type": "Feature", "properties": { "barangay": "San Nicolas Central", "flood_risk": 0.8547, "risk_level": "HIGH", "ndvi_2020": 0.1267, "ndvi_2010": 0.0001, "ndvi_change": -0.1266, "deforested": false, "elevation_m": 7.2 }, "geometry": { "type": "Polygon", "coordinates": [ [ [ 123.887008666000156, 10.292949676000035 ], [ 123.889831543000014, 10.294300079000152 ], [ 123.890533446000063, 10.294480325000109 ], [ 123.891387939000197, 10.294750215000079 ], [ 123.892227173000151, 10.29446983400004 ], [ 123.892433167000149, 10.291930198000045 ], [ 123.891983032000098, 10.291870116999974 ], [ 123.891761779000035, 10.291839601000106 ], [ 123.886917114000198, 10.290630342000156 ], [ 123.887062073000038, 10.290929794000078 ], [ 123.887290954000036, 10.291629791000162 ], [ 123.887207030000013, 10.292090415000075 ], [ 123.88699340800008, 10.292519569999968 ], [ 123.887008666000156, 10.292949676000035 ] ] ] } },
{ "type": "Feature", "properties": { "barangay": "San Roque", "flood_risk": 0.8296, "risk_level": "HIGH", "ndvi_2020": 0.1025, "ndvi_2010": 0.045, "ndvi_change": -0.0575, "deforested": false, "elevation_m": 4.7 }, "geometry": { "type": "Polygon", "coordinates": [ [ [ 123.905899048000265, 10.294690131999971 ], [ 123.908233643000131, 10.294810295000048 ], [ 123.909866332000092, 10.29477977900001 ], [ 123.910797118000346, 10.294750215000079 ], [ 123.910606384000062, 10.294480325000109 ], [ 123.910408020000091, 10.294159890000174 ], [ 123.9101486200002, 10.293800354999973 ], [ 123.909843446000309, 10.293399811000086 ], [ 123.909660340000073, 10.293129921000116 ], [ 123.909629821000181, 10.293009758000039 ], [ 123.90957641600005, 10.292779923000126 ], [ 123.909378052000193, 10.292389868999976 ], [ 123.909149171000195, 10.29207992500011 ], [ 123.90888977100019, 10.291859627000179 ], [ 123.908622741000158, 10.291689874000099 ], [ 123.908332825000116, 10.291620255000112 ], [ 123.908058167000149, 10.291440010000031 ], [ 123.907768249000128, 10.29137039200009 ], [ 123.90746307400002, 10.291230202000065 ], [ 123.907066346000079, 10.291080475 ], [ 123.906631470000093, 10.290880204000075 ], [ 123.906066894000105, 10.290829659000053 ], [ 123.905548095000086, 10.290820123000174 ], [ 123.905097961000024, 10.290760040000066 ], [ 123.904693604000045, 10.290559769000083 ], [ 123.905639649000022, 10.293490411000107 ], [ 123.905899048000265, 10.294690131999971 ] ] ] } },
{ "type": "Feature", "properties": { "barangay": "Santa Cruz", "flood_risk": 0.85, "risk_level": "HIGH", "ndvi_2020": 0.1073, "ndvi_2010": 0.0307, "ndvi_change": -0.0766, "deforested": false, "elevation_m": 11.5 }, "geometry": { "type": "Polygon", "coordinates": [ [ [ 123.896392823000042, 10.305560112000023 ], [ 123.89813232500012, 10.306119920000128 ], [ 123.898971557000095, 10.306440353000085 ], [ 123.902702331000228, 10.300319671000125 ], [ 123.898078919000113, 10.299220085000059 ], [ 123.897613525000111, 10.301030159000106 ], [ 123.896392823000042, 10.305560112000023 ] ] ] } },
{ "type": "Feature", "properties": { "barangay": "Sapangdaku", "flood_risk": 0.44, "risk_level": "LOW", "ndvi_2020": 0.4066, "ndvi_2010": 0.1967, "ndvi_change": -0.2099, "deforested": false, "elevation_m": 325.0 }, "geometry": { "type": "Polygon", "coordinates": [ [ [ 123.839302063000218, 10.35968971300008 ], [ 123.853523254000152, 10.367360115000054 ], [ 123.8663635260001, 10.352370262000079 ], [ 123.867233277000196, 10.334919930000069 ], [ 123.8644332880001, 10.329509736000091 ], [ 123.861923218000015, 10.329310417000045 ], [ 123.861816406000116, 10.33067989400007 ], [ 123.861297608000314, 10.33224010400005 ], [ 123.860496521000073, 10.333049775000177 ], [ 123.859466553000061, 10.33390045200008 ], [ 123.858360291000054, 10.334230423000122 ], [ 123.857421875000227, 10.333869935000166 ], [ 123.856788635000044, 10.333709718000136 ], [ 123.856369018, 10.334019660000024 ], [ 123.855072022000172, 10.335909844000071 ], [ 123.853828431000011, 10.337100029000055 ], [ 123.852020264000089, 10.338640214000065 ], [ 123.839302063000218, 10.35968971300008 ] ] ] } },
{ "type": "Feature", "properties": { "barangay": "Sawang Calero", "flood_risk": 0.8584, "risk_level": "HIGH", "ndvi_2020": 0.1058, "ndvi_2010": -0.0064, "ndvi_change": -0.1122, "deforested": false, "elevation_m": 6.2 }, "geometry": { "type": "Polygon", "coordinates": [ [ [ 123.885887146000073, 10.289449692000176 ], [ 123.886672973000145, 10.289609909000035 ], [ 123.886917114000198, 10.290630342000156 ], [ 123.891761779000035, 10.291839601000106 ], [ 123.891380311000034, 10.290229798000041 ], [ 123.891349792000142, 10.290149689000089 ], [ 123.891242982000335, 10.289830207000136 ], [ 123.890663147000055, 10.28826999600011 ], [ 123.889961242000027, 10.28826999600011 ], [ 123.889396668000018, 10.288339615000098 ], [ 123.888641357000097, 10.288619995000033 ], [ 123.888496398000143, 10.288749695999968 ], [ 123.888076781000109, 10.289030075000028 ], [ 123.887519837000013, 10.289310455000134 ], [ 123.886611938000328, 10.28950977400018 ], [ 123.885887146000073, 10.289449692000176 ] ] ] } },
{ "type": "Feature", "properties": { "barangay": "Sinsin", "flood_risk": 0.3573, "risk_level": "LOW", "ndvi_2020": 0.3291, "ndvi_2010": 0.2563, "ndvi_change": -0.0728, "deforested": false, "elevation_m": 523.0 }, "geometry": { "type": "Polygon", "coordinates": [ [ [ 123.808097838000208, 10.377440451999973 ], [ 123.808052063000218, 10.376930238000057 ], [ 123.807952881, 10.375120163000133 ], [ 123.808143615000176, 10.373530389000052 ], [ 123.808433532000095, 10.372300149000012 ], [ 123.808799744000339, 10.371120453000117 ], [ 123.816490174000023, 10.34941959400004 ], [ 123.816238402000181, 10.348999977000062 ], [ 123.81536102300015, 10.348690032999968 ], [ 123.814277648000257, 10.348389626000085 ], [ 123.813453674000129, 10.347820282000043 ], [ 123.812606812000013, 10.347060204000059 ], [ 123.811752319000107, 10.346879960000024 ], [ 123.810913085000152, 10.346639634000041 ], [ 123.809547424000016, 10.346309661000021 ], [ 123.808326721000071, 10.346289635000119 ], [ 123.807090759000062, 10.345569611000087 ], [ 123.806846619000112, 10.346220017000064 ], [ 123.806159973000149, 10.346839906000127 ], [ 123.80518341100003, 10.347390174000168 ], [ 123.803977965000058, 10.348409652000157 ], [ 123.80319976900023, 10.348369598000033 ], [ 123.802368165000303, 10.348449706000054 ], [ 123.772407531000113, 10.35608005600011 ], [ 123.772163392000039, 10.361180305000119 ], [ 123.771743775000232, 10.36437034700009 ], [ 123.771697998000036, 10.369230270000116 ], [ 123.771690369000112, 10.372529984000153 ], [ 123.808097838000208, 10.377440451999973 ] ] ] } },
{ "type": "Feature", "properties": { "barangay": "Sirao", "flood_risk": 0.4435, "risk_level": "LOW", "ndvi_2020": 0.3843, "ndvi_2010": 0.2594, "ndvi_change": -0.1249, "deforested": false, "elevation_m": 380.3 }, "geometry": { "type": "Polygon", "coordinates": [ [ [ 123.900337218000118, 10.422599793000188 ], [ 123.901321412000016, 10.408550262000063 ], [ 123.901313781000226, 10.406370163000076 ], [ 123.899780274000136, 10.398719787 ], [ 123.89837646400008, 10.398699761000159 ], [ 123.897613525000111, 10.398790360000078 ], [ 123.896636962000116, 10.398699761000159 ], [ 123.895988464000084, 10.398139954000101 ], [ 123.895812988000102, 10.39682960600004 ], [ 123.895866394000109, 10.395400048000056 ], [ 123.89536285500003, 10.393549919000179 ], [ 123.894279479000147, 10.392580032000126 ], [ 123.893127440000171, 10.392689704000134 ], [ 123.89161682200006, 10.392709733000117 ], [ 123.890457153000057, 10.392709733000117 ], [ 123.889610290000064, 10.392430305000119 ], [ 123.866592407000098, 10.404080390999979 ], [ 123.86061096200001, 10.409110069000121 ], [ 123.861190796000187, 10.410149575000162 ], [ 123.862030030000028, 10.41156005900018 ], [ 123.861991881000108, 10.412949561 ], [ 123.862167359000068, 10.414329528000053 ], [ 123.862693787000126, 10.41485977300016 ], [ 123.863258363000114, 10.41532993300018 ], [ 123.864036560000272, 10.415719986 ], [ 123.864578247000054, 10.416339875000062 ], [ 123.864830017000145, 10.417309761000183 ], [ 123.865119935000166, 10.418169976000058 ], [ 123.865791322000177, 10.419329642999969 ], [ 123.884666444000118, 10.42218971200009 ], [ 123.900337218000118, 10.422599793000188 ] ] ] } },
{ "type": "Feature", "properties": { "barangay": "Sr Santo Niño", "flood_risk": 0.8278, "risk_level": "HIGH", "ndvi_2020": 0.0893, "ndvi_2010": 0.0379, "ndvi_change": -0.0514, "deforested": false, "elevation_m": 8.3 }, "geometry": { "type": "Polygon", "coordinates": [ [ [ 123.902198791000046, 10.29069996000004 ], [ 123.903022766000163, 10.292429924000032 ], [ 123.903617859000065, 10.293709756000055 ], [ 123.904228210000042, 10.294659615000057 ], [ 123.905899048000265, 10.294690131999971 ], [ 123.905639649000022, 10.293490411000107 ], [ 123.904693604000045, 10.290559769000083 ], [ 123.904266357000097, 10.290349961000175 ], [ 123.903793335000046, 10.290390015000071 ], [ 123.903289794000216, 10.290519714000084 ], [ 123.902763367000261, 10.290579796999964 ], [ 123.902198791000046, 10.29069996000004 ] ] ] } },
{ "type": "Feature", "properties": { "barangay": "Suba Poblacion", "flood_risk": 0.8735, "risk_level": "HIGH", "ndvi_2020": 0.059, "ndvi_2010": 0.0273, "ndvi_change": -0.0317, "deforested": false, "elevation_m": 5.0 }, "geometry": { "type": "Polygon", "coordinates": [ [ [ 123.892433167000149, 10.291930198000045 ], [ 123.894027710000046, 10.292220116000067 ], [ 123.893959046000191, 10.289830207000136 ], [ 123.893928528000174, 10.288889885000117 ], [ 123.893722533000073, 10.288900376000015 ], [ 123.893386840000062, 10.288949966000018 ], [ 123.893089294000333, 10.289030075000028 ], [ 123.892807007000215, 10.289059638000083 ], [ 123.892517089000194, 10.288999558000057 ], [ 123.892250061000141, 10.288869857000066 ], [ 123.891998290000174, 10.288909911000189 ], [ 123.891662597000163, 10.288789750000092 ], [ 123.891151428000057, 10.288550377000092 ], [ 123.890663147000055, 10.28826999600011 ], [ 123.891242982000335, 10.289830207000136 ], [ 123.891349792000142, 10.290149689000089 ], [ 123.891380311000034, 10.290229798000041 ], [ 123.891761779000035, 10.291839601000106 ], [ 123.891983032000098, 10.291870116999974 ], [ 123.892433167000149, 10.291930198000045 ] ] ] } },
{ "type": "Feature", "properties": { "barangay": "Sudlon I", "flood_risk": 0.3297, "risk_level": "LOW", "ndvi_2020": 0.3156, "ndvi_2010": 0.2789, "ndvi_change": -0.0367, "deforested": false, "elevation_m": 668.0 }, "geometry": { "type": "Polygon", "coordinates": [ [ [ 123.769737243000122, 10.390640258000019 ], [ 123.77474212500033, 10.395870208000076 ], [ 123.813331604000155, 10.391730309000081 ], [ 123.809890747000281, 10.377670288 ], [ 123.808097838000208, 10.377440451999973 ], [ 123.771690369000112, 10.372529984000153 ], [ 123.771949767000024, 10.3767900470001 ], [ 123.771888734000072, 10.379220008000175 ], [ 123.771537780000017, 10.383000375000051 ], [ 123.770988464000197, 10.385649682000121 ], [ 123.770271301000093, 10.388279915000055 ], [ 123.769737243000122, 10.390640258000019 ] ] ] } },
{ "type": "Feature", "properties": { "barangay": "Sudlon II", "flood_risk": 0.317, "risk_level": "LOW", "ndvi_2020": 0.3396, "ndvi_2010": 0.2281, "ndvi_change": -0.1115, "deforested": false, "elevation_m": 681.2 }, "geometry": { "type": "Polygon", "coordinates": [ [ [ 123.77474212500033, 10.395870208000076 ], [ 123.786437988000216, 10.4071798330001 ], [ 123.797607422000169, 10.41812038400019 ], [ 123.797416688000112, 10.418769836000138 ], [ 123.797256470000093, 10.419690132000028 ], [ 123.797729492000144, 10.420680046000086 ], [ 123.798187256, 10.42218971200009 ], [ 123.798347474000252, 10.422639848000017 ], [ 123.798782349000135, 10.423729896000168 ], [ 123.79962158100011, 10.424839973000076 ], [ 123.800323486000138, 10.425889970000185 ], [ 123.823211669000102, 10.410519600000157 ], [ 123.825103760000047, 10.400179863 ], [ 123.813331604000155, 10.391730309000081 ], [ 123.77474212500033, 10.395870208000076 ] ] ] } },
{ "type": "Feature", "properties": { "barangay": "T. Padilla", "flood_risk": 0.8463, "risk_level": "HIGH", "ndvi_2020": 0.0581, "ndvi_2010": 0.0713, "ndvi_change": 0.0132, "deforested": false, "elevation_m": 4.9 }, "geometry": { "type": "Polygon", "coordinates": [ [ [ 123.907966613000212, 10.296730042000036 ], [ 123.906982422000056, 10.29714012200003 ], [ 123.907051087000127, 10.297929764000173 ], [ 123.90750884900001, 10.29920005800011 ], [ 123.907470702000069, 10.300749779000171 ], [ 123.911003113000106, 10.299599647000036 ], [ 123.910179139000093, 10.296939850000172 ], [ 123.907966613000212, 10.296730042000036 ] ] ] } },
{ "type": "Feature", "properties": { "barangay": "Tabunan", "flood_risk": 0.3252, "risk_level": "LOW", "ndvi_2020": 0.3206, "ndvi_2010": 0.2788, "ndvi_change": -0.0418, "deforested": false, "elevation_m": 668.8 }, "geometry": { "type": "Polygon", "coordinates": [ [ [ 123.800323486000138, 10.425889970000185 ], [ 123.800819397000055, 10.426750183000024 ], [ 123.800758362000238, 10.42718982800011 ], [ 123.801696778000064, 10.42702961100008 ], [ 123.802612304000036, 10.427040101000046 ], [ 123.803726196000184, 10.428009987 ], [ 123.805023194000114, 10.429579735000061 ], [ 123.805877686000031, 10.42994976 ], [ 123.806427002000305, 10.430939674000058 ], [ 123.806838989000198, 10.431630134000159 ], [ 123.807601928000054, 10.432299615000034 ], [ 123.808158874000128, 10.433329583000159 ], [ 123.808998108000083, 10.435159684000155 ], [ 123.810676574000013, 10.436579704000053 ], [ 123.812316894000219, 10.437410355000111 ], [ 123.813728332000096, 10.438670159000083 ], [ 123.815246583000089, 10.439040184000078 ], [ 123.816589356, 10.440099716000134 ], [ 123.817657471000075, 10.440879822000056 ], [ 123.819442750000235, 10.441800118000174 ], [ 123.820152283000084, 10.441450119000081 ], [ 123.821212768, 10.441439629000058 ], [ 123.821426393000138, 10.442299844000104 ], [ 123.824058533000311, 10.443690299000139 ], [ 123.826026916000046, 10.44468021300014 ], [ 123.826980591000165, 10.44575977400001 ], [ 123.827369689000193, 10.446559906000175 ], [ 123.843719482000211, 10.429109573000062 ], [ 123.835197448000145, 10.418230056000027 ], [ 123.834663391000049, 10.416959764000069 ], [ 123.831260681000117, 10.410639763000063 ], [ 123.825103760000047, 10.400179863 ], [ 123.823211669000102, 10.410519600000157 ], [ 123.800323486000138, 10.425889970000185 ] ] ] } },
{ "type": "Feature", "properties": { "barangay": "Tagbao", "flood_risk": 0.3891, "risk_level": "LOW", "ndvi_2020": 0.3552, "ndvi_2010": 0.2591, "ndvi_change": -0.0961, "deforested": false, "elevation_m": 397.6 }, "geometry": { "type": "Polygon", "coordinates": [ [ [ 123.83953857400013, 10.455679893000081 ], [ 123.862747192000029, 10.473600388000023 ], [ 123.870956421000074, 10.467120172000079 ], [ 123.871688843000243, 10.455200196000078 ], [ 123.857048035000162, 10.449839592000103 ], [ 123.849418640000295, 10.437870026000041 ], [ 123.843719482000211, 10.429109573000062 ], [ 123.827369689000193, 10.446559906000175 ], [ 123.82836914100028, 10.447600365000028 ], [ 123.830543518000013, 10.448699951000037 ], [ 123.832603454000036, 10.450180053000111 ], [ 123.83467102100019, 10.451649667000027 ], [ 123.836822509000058, 10.4531297690001 ], [ 123.837753295000084, 10.453920364000055 ], [ 123.83953857400013, 10.455679893000081 ] ] ] } },
{ "type": "Feature", "properties": { "barangay": "Talamban", "flood_risk": 0.7496, "risk_level": "HIGH", "ndvi_2020": 0.2861, "ndvi_2010": 0.1088, "ndvi_change": -0.1773, "deforested": false, "elevation_m": 65.1 }, "geometry": { "type": "Polygon", "coordinates": [ [ [ 123.913017272000047, 10.376529694000112 ], [ 123.923362732000328, 10.37681961100003 ], [ 123.921630859000174, 10.367859841000154 ], [ 123.920158387000015, 10.357580184000028 ], [ 123.91961669900013, 10.354220391000126 ], [ 123.918510437, 10.346599579000042 ], [ 123.900222778000284, 10.355090142000108 ], [ 123.901466369000104, 10.361109734000081 ], [ 123.904586792000032, 10.364660263000133 ], [ 123.903480530000024, 10.370249748000106 ], [ 123.909301758000083, 10.370340347000081 ], [ 123.913017272000047, 10.376529694000112 ] ] ] } },
{ "type": "Feature", "properties": { "barangay": "Taptap", "flood_risk": 0.3573, "risk_level": "LOW", "ndvi_2020": 0.3569, "ndvi_2010": 0.3062, "ndvi_change": -0.0507, "deforested": false, "elevation_m": 516.2 }, "geometry": { "type": "Polygon", "coordinates": [ [ [ 123.849418640000295, 10.437870026000041 ], [ 123.853347779000046, 10.433170319000112 ], [ 123.876838684000063, 10.431850434000069 ], [ 123.876876831000118, 10.431090356000084 ], [ 123.876083374000132, 10.430600166000033 ], [ 123.875152588000219, 10.430439948000071 ], [ 123.874290467000037, 10.430680275000157 ], [ 123.873573304000161, 10.430589675000135 ], [ 123.873168945000316, 10.43035984 ], [ 123.872276306000117, 10.429690361000155 ], [ 123.8718872070001, 10.42858028400002 ], [ 123.871238709000295, 10.427530289000117 ], [ 123.870773315000179, 10.426509857000042 ], [ 123.870216369000104, 10.425419808000186 ], [ 123.869438172000059, 10.425080300000161 ], [ 123.868698120000317, 10.425200463000067 ], [ 123.868347169000117, 10.425350190000131 ], [ 123.867927552000197, 10.424099923000142 ], [ 123.86801147600022, 10.422920228000123 ], [ 123.867248535000044, 10.422209739999971 ], [ 123.86657714900025, 10.422229766000044 ], [ 123.865982056000121, 10.421790123000164 ], [ 123.86614227300015, 10.420689584000172 ], [ 123.865951539000207, 10.420240403000037 ], [ 123.865791322000177, 10.419329642999969 ], [ 123.865119935000166, 10.418169976000058 ], [ 123.864830017000145, 10.417309761000183 ], [ 123.864578247000054, 10.416339875000062 ], [ 123.864036560000272, 10.415719986 ], [ 123.863258363000114, 10.41532993300018 ], [ 123.862693787000126, 10.41485977300016 ], [ 123.862167359000068, 10.414329528000053 ], [ 123.861991881000108, 10.412949561 ], [ 123.862030030000028, 10.41156005900018 ], [ 123.861190796000187, 10.410149575000162 ], [ 123.86061096200001, 10.409110069000121 ], [ 123.848297119000108, 10.405340195000122 ], [ 123.847930907000091, 10.405540466000105 ], [ 123.846717835000049, 10.405830383000023 ], [ 123.846168517000024, 10.406270028000051 ], [ 123.846069335000038, 10.406800270000076 ], [ 123.844879150000224, 10.407199859000173 ], [ 123.843986512000129, 10.407859803000065 ], [ 123.843971252000074, 10.408590317000119 ], [ 123.843223572000056, 10.40958023100012 ], [ 123.842010498000036, 10.41051006400005 ], [ 123.841789245000086, 10.41147995 ], [ 123.841049195000323, 10.412059784 ], [ 123.840103150000118, 10.412560463000148 ], [ 123.839447022000058, 10.413009644000113 ], [ 123.838943481000229, 10.41384029500017 ], [ 123.834663391000049, 10.416959764000069 ], [ 123.835197448000145, 10.418230056000027 ], [ 123.843719482000211, 10.429109573000062 ], [ 123.849418640000295, 10.437870026000041 ] ] ] } },
{ "type": "Feature", "properties": { "barangay": "Tejero", "flood_risk": 0.8571, "risk_level": "HIGH", "ndvi_2020": 0.0445, "ndvi_2010": 0.0105, "ndvi_change": -0.034, "deforested": false, "elevation_m": 4.2 }, "geometry": { "type": "Polygon", "coordinates": [ [ [ 123.912429810000049, 10.303589821000116 ], [ 123.915519714000084, 10.3019104 ], [ 123.915863038000111, 10.301799775000177 ], [ 123.9156265270002, 10.301440239000101 ], [ 123.915397644000109, 10.300999642000136 ], [ 123.915023804000157, 10.300709724000114 ], [ 123.914649964000091, 10.300410270000043 ], [ 123.914268493000122, 10.300239562000115 ], [ 123.913963319000231, 10.300049783000134 ], [ 123.913642884000069, 10.299980165000079 ], [ 123.913330079000048, 10.299860002000173 ], [ 123.913192748000142, 10.299790383000186 ], [ 123.913040161000026, 10.299719810000113 ], [ 123.912773133000201, 10.299530029000152 ], [ 123.912513733000196, 10.299340247999965 ], [ 123.912269592000143, 10.299130440000056 ], [ 123.912086486000135, 10.298890114000017 ], [ 123.911972046000074, 10.298640252000155 ], [ 123.91191864100017, 10.298330308000061 ], [ 123.911796570000092, 10.298040389000164 ], [ 123.911712646000069, 10.297760011000037 ], [ 123.911666869000101, 10.29747009200014 ], [ 123.911666869000101, 10.29714965800008 ], [ 123.911613464000084, 10.296730042000036 ], [ 123.91152954000006, 10.296600342000147 ], [ 123.911087037000129, 10.296799661000023 ], [ 123.910179139000093, 10.296939850000172 ], [ 123.911003113000106, 10.299599647000036 ], [ 123.911102295000092, 10.301899910000031 ], [ 123.912429810000049, 10.303589821000116 ] ] ] } },
{ "type": "Feature", "properties": { "barangay": "Tinago", "flood_risk": 0.8432, "risk_level": "HIGH", "ndvi_2020": 0.0353, "ndvi_2010": 0.0075, "ndvi_change": -0.0278, "deforested": false, "elevation_m": 4.0 }, "geometry": { "type": "Polygon", "coordinates": [ [ [ 123.908233643000131, 10.294810295000048 ], [ 123.907966613000212, 10.296730042000036 ], [ 123.910179139000093, 10.296939850000172 ], [ 123.911087037000129, 10.296799661000023 ], [ 123.91152954000006, 10.296600342000147 ], [ 123.911300659000176, 10.296190262000096 ], [ 123.910873414000093, 10.295929910000098 ], [ 123.910743713000102, 10.29574012900008 ], [ 123.910850526000331, 10.295269967000081 ], [ 123.910842895000314, 10.295009612000115 ], [ 123.910797118000346, 10.294750215000079 ], [ 123.909866332000092, 10.29477977900001 ], [ 123.908233643000131, 10.294810295000048 ] ] ] } },
{ "type": "Feature", "properties": { "barangay": "Tisa", "flood_risk": 0.7802, "risk_level": "HIGH", "ndvi_2020": 0.2037, "ndvi_2010": 0.0674, "ndvi_change": -0.1363, "deforested": false, "elevation_m": 49.1 }, "geometry": { "type": "Polygon", "coordinates": [ [ [ 123.854370117000144, 10.307729721000044 ], [ 123.861129761000029, 10.313639640000076 ], [ 123.865936279000152, 10.306260109000107 ], [ 123.877777099000014, 10.306960107000123 ], [ 123.882492065000065, 10.300029755000082 ], [ 123.882713317000253, 10.299539567000068 ], [ 123.88250732500012, 10.297590256000149 ], [ 123.882652282000095, 10.296600342000147 ], [ 123.882797241000048, 10.29502964 ], [ 123.882469178000065, 10.294980048000184 ], [ 123.880332946000067, 10.295080185000188 ], [ 123.877372742000034, 10.294969560000027 ], [ 123.875747681, 10.294810295000048 ], [ 123.873367309000059, 10.294650078000075 ], [ 123.870613098000149, 10.294850350000104 ], [ 123.868217468000012, 10.295669556 ], [ 123.865898132000098, 10.29730987500011 ], [ 123.864273071000071, 10.298950196000021 ], [ 123.862716675000229, 10.300930024000081 ], [ 123.86148071200023, 10.30280971500008 ], [ 123.859207153000057, 10.304840088000105 ], [ 123.857627869000339, 10.305480003000014 ], [ 123.856117248000146, 10.30613994600003 ], [ 123.855278014000191, 10.306650162000153 ], [ 123.854370117000144, 10.307729721000044 ] ] ] } },
{ "type": "Feature", "properties": { "barangay": "To-Ong Pardo", "flood_risk": 0.5146, "risk_level": "MODERATE", "ndvi_2020": 0.3711, "ndvi_2010": 0.2898, "ndvi_change": -0.0813, "deforested": false, "elevation_m": 265.3 }, "geometry": { "type": "Polygon", "coordinates": [ [ [ 123.843269349000025, 10.327300072000014 ], [ 123.844497681, 10.323220254000148 ], [ 123.847602844000335, 10.320560455000077 ], [ 123.846168517000024, 10.305700303000151 ], [ 123.847923279000156, 10.304849625000088 ], [ 123.845703125000114, 10.303839683000035 ], [ 123.8445129400003, 10.303290368000148 ], [ 123.838562011000022, 10.299920081999971 ], [ 123.828041078000069, 10.296540261000018 ], [ 123.819740296000191, 10.307359696000049 ], [ 123.820297242000038, 10.308670045000042 ], [ 123.820846558000085, 10.309749603000171 ], [ 123.821640015000071, 10.311240197000018 ], [ 123.82240295400004, 10.312529563000169 ], [ 123.82241821200023, 10.314160347000097 ], [ 123.822906495000211, 10.315910339000084 ], [ 123.824058533000311, 10.317259789 ], [ 123.824913024000011, 10.320139885000117 ], [ 123.824508667000259, 10.321619989000169 ], [ 123.823486329000048, 10.324549676 ], [ 123.820671082000104, 10.327170372000126 ], [ 123.821090697000045, 10.327289582000049 ], [ 123.821807861000252, 10.328229904000068 ], [ 123.822769166000171, 10.328920364000169 ], [ 123.823898316000168, 10.330579759000045 ], [ 123.843269349000025, 10.327300072000014 ] ] ] } },
{ "type": "Feature", "properties": { "barangay": "Zapatera", "flood_risk": 0.8535, "risk_level": "HIGH", "ndvi_2020": 0.083, "ndvi_2010": 0.0301, "ndvi_change": -0.0529, "deforested": false, "elevation_m": 8.3 }, "geometry": { "type": "Polygon", "coordinates": [ [ [ 123.902656554000032, 10.30706977900013 ], [ 123.902908326000102, 10.308879852000075 ], [ 123.904197694000231, 10.310950279000053 ], [ 123.904602050000108, 10.309379578 ], [ 123.905853271000296, 10.307680130999984 ], [ 123.907440186000031, 10.305789947000108 ], [ 123.907783509000183, 10.304860115999986 ], [ 123.907592773000033, 10.304550171000187 ], [ 123.907417297000052, 10.30331039400005 ], [ 123.907348632000094, 10.302330016999974 ], [ 123.907470702000069, 10.300749779000171 ], [ 123.903121948000035, 10.300499917000081 ], [ 123.902542114000198, 10.301699638000173 ], [ 123.902450562000013, 10.305029869000123 ], [ 123.902656554000032, 10.30706977900013 ] ] ] } }
]
}
